{"type":"FeatureCollection","features":[{"type":"Feature","properties":{"name":"Centro urbano di Bologna","members":[29,30,53,60,61,78],"area_m2":2837331.0371225816,"shadow_area_weighted_mean":0.7812642016126469},"geometry":{"type":"Polygon","coordinates":[[[11.351505060166671,44.491904839631424],[11.351420579653702,44.491706388646946],[11.351306510555274,44.49145336026443],[11.351195502344996,44.491231673358016],[11.351055517726888,44.49097526766126],[11.35085880464838,44.49067509197202],[11.350645766833068,44.490344520454656],[11.350567408096403,44.490232393622044],[11.35041313933359,44.49003191624903],[11.350346820090317,44.48995059052224],[11.350290703807548,44.49000016949522],[11.349979309452982,44.49028791666807],[11.349902787249206,44.49036140702584],[11.34983034622963,44.4904384097904],[11.349545683631584,44.49072548150041],[11.349518543756645,44.49075371584742],[11.349323055033398,44.49091920424495],[11.349161032020604,44.491054161721806],[11.349080632691836,44.49112278874707],[11.348970032599977,44.49120573558469],[11.348867390817313,44.49125599002051],[11.348489881278685,44.49135096009681],[11.348144000917618,44.49140648314284],[11.3476228336951,44.49146389748484],[11.346823329710046,44.49150456034824],[11.34645235006614,44.4915042901631],[11.346333179487461,44.49151077460643],[11.345873434087174,44.49151063951386],[11.345612034239075,44.49150361470026],[11.344963534069473,44.49146457294769],[11.344858851694708,44.4914583586895],[11.344158520485749,44.491420397677494],[11.344087711939855,44.49142134332548],[11.343679797578927,44.49140216018062],[11.34348369667805,44.49139581082986],[11.343209237040506,44.49138702981285],[11.343114757626244,44.49138270685062],[11.342961101041062,44.49137527675931],[11.342815606824283,44.49137203453764],[11.342696640304812,44.491364334261185],[11.34175245833982,44.4913240766755],[11.341646143491374,44.49132002389842],[11.341091714617615,44.4913112428814],[11.340829906651097,44.49131097269626],[11.34051932853337,44.49132515741606],[11.340127126731616,44.49134731259744],[11.339990611120081,44.491354067225906],[11.339909803672892,44.491380410276946],[11.339790429035002,44.49142120823291],[11.339567188259187,44.491476461093804],[11.339267221220384,44.49154441265622],[11.339004597017025,44.49160155681308],[11.338794007912233,44.49166437485786],[11.338691570188779,44.49169747253737],[11.338588112169273,44.491742323270415],[11.338396092452598,44.491834051125046],[11.338209990453015,44.49191726814781],[11.337901452927388,44.49208505311902],[11.337853090894603,44.49213220042575],[11.337810442519698,44.49216786486407],[11.337770650973734,44.49219745013678],[11.337724737651468,44.492225954668925],[11.337499252224342,44.49232957066967],[11.337304987856356,44.492425756579095],[11.337074196889768,44.49254977155782],[11.336874831041529,44.49265298228085],[11.336786269344358,44.49271890745472],[11.336691381811677,44.49280469123631],[11.336616083963161,44.49285062270991],[11.336530787213352,44.49289682436865],[11.33629040546389,44.49299962981397],[11.336155930444454,44.493056503785695],[11.335921670471295,44.49315525645394],[11.335843719853049,44.49320861801886],[11.336051860247318,44.49353527185171],[11.33640978010178,44.49433745152891],[11.336457529956936,44.49446133141506],[11.336695462995879,44.49507789390188],[11.336902787153308,44.49560988844024],[11.337016040014896,44.49583468247575],[11.336776474502276,44.49589520394685],[11.33661098248291,44.49594707949351],[11.33587983833323,44.49620051315373],[11.334923412815634,44.49652122291353],[11.334011880324255,44.49684476961728],[11.333692527660496,44.49695878774587],[11.332955873912145,44.49721465307235],[11.332629379176034,44.49732813083065],[11.332192080288854,44.49748010997125],[11.331635610822994,44.49767329234552],[11.331019556067796,44.4978871438829],[11.32988784368875,44.49829674455337],[11.329548085103983,44.49841967879154],[11.329349127374167,44.49848925146479],[11.32771522527914,44.49906028775572],[11.327573404128142,44.49911297385779],[11.327459335029713,44.4990904133987],[11.327055909971405,44.49903840275947],[11.326931433853263,44.499114459876054],[11.32680267249171,44.49919348902916],[11.326807161794331,44.49929426808595],[11.326890622011248,44.49940207195634],[11.326946942353228,44.499470563889034],[11.327173652135615,44.499482722220286],[11.33012312395796,44.50098414103678],[11.331188313034522,44.50151248807577],[11.33215269686131,44.50199760549254],[11.332716512458733,44.50228427192484],[11.333224211773386,44.50258039483701],[11.33364702245665,44.50276479619426],[11.334651810007031,44.503260315738885],[11.336322646819081,44.50411842373982],[11.336637918298639,44.50426594482562],[11.337680048684463,44.5047890232544],[11.337781466111869,44.50483252306175],[11.338395888393388,44.50515850143176],[11.338444658544594,44.50518430411252],[11.339007861964385,44.505466782675164],[11.339420469687147,44.50563821514576],[11.339618611180123,44.50570643689331],[11.339652076890575,44.50583734159308],[11.339829812462545,44.506549144341335],[11.340464640665072,44.50646376583746],[11.341845101221192,44.50628260670187],[11.343381871132225,44.50607713090379],[11.344517256577051,44.505925421948334],[11.344880890089396,44.50587732899362],[11.345138004694084,44.50585085085002],[11.34533553400943,44.50583234316801],[11.345441236680246,44.505824507798984],[11.345583670008875,44.50579965076621],[11.345742836192729,44.50578127817677],[11.345898941488432,44.50575277364462],[11.345970362211956,44.50574034512823],[11.346256453224473,44.50569400837693],[11.346618046144718,44.505635918572075],[11.346943724643989,44.505579855155766],[11.34730409320897,44.50552027933266],[11.347391838669301,44.50550582442773],[11.347758124951376,44.505441925642394],[11.348035033299439,44.505390725558584],[11.348296637206749,44.50534236241873],[11.349013497211724,44.505202811794526],[11.349491812000126,44.505105815329685],[11.350155616610483,44.50496585942777],[11.350190714794614,44.50496140137298],[11.350429260011184,44.50493114063743],[11.35061883101734,44.50490304138299],[11.350839623082635,44.504871970092026],[11.351022256075646,44.504845762133556],[11.351181218200292,44.50481914889738],[11.35132712053549,44.5047938865869],[11.351487919193026,44.50476470659191],[11.351681163264962,44.50472593502448],[11.351973580112992,44.50464852698221],[11.352166824184927,44.504595435602425],[11.35232109294774,44.50455301653563],[11.35249821634208,44.50450222172953],[11.352668605782487,44.504447644331485],[11.352897356156976,44.504371722307475],[11.353052441156628,44.504315253613456],[11.353288537662678,44.50422649779535],[11.353592177767263,44.50410586013086],[11.353678290753912,44.50407357300677],[11.354445757442983,44.503764075930235],[11.355366268539607,44.50339621886371],[11.35652369237912,44.50293433736888],[11.357276466805066,44.5026338914945],[11.35784477170511,44.502407611440724],[11.35851755492071,44.50213972287557],[11.35837369317761,44.5020658272401],[11.35802107886261,44.50188466810451],[11.357891501264216,44.50181333922786],[11.35731482993656,44.5015220796482],[11.356320041287471,44.5009933273315],[11.356239641958704,44.50094753095047],[11.356271271136265,44.50076974912911],[11.356380850932071,44.49997756630206],[11.356392074188626,44.49978884198258],[11.356510428530466,44.49885683834618],[11.356531038510683,44.49865744171372],[11.356572054411908,44.49859840626088],[11.356655310569614,44.49836307500496],[11.356603275471048,44.49815935541027],[11.35678427599038,44.49650068884298],[11.356969561753122,44.49481405811381],[11.357060164042393,44.494276119502395],[11.357073019772628,44.49403214232203],[11.35708220243708,44.49392731048816],[11.357091793219954,44.493766145052845],[11.35728891441688,44.49207005784382],[11.357452773962567,44.49057201634155],[11.357466241870432,44.490450973399355],[11.357518889146629,44.49018808325928],[11.357407880936352,44.490181193538234],[11.357087099858122,44.490205915478434],[11.356999150338583,44.49018578668559],[11.35678794905616,44.49025427861829],[11.355952122531717,44.49057823059975],[11.355921309590995,44.49059119948641],[11.355693171394138,44.49067995530452],[11.355098542855995,44.4909115039685],[11.354651653185943,44.49107334486666],[11.35414293357524,44.491266527240924],[11.354011315384746,44.49131191834425],[11.353960708700647,44.49133123658168],[11.353743997819555,44.49141377814159],[11.352698398427158,44.49184040047581],[11.352046837369405,44.49209518506173],[11.351642800133469,44.49224932568343],[11.351621782034831,44.4921788073622],[11.351505060166671,44.491904839631424]]]}}]}