{"type": "FeatureCollection", "features": [{"type": "Feature", "properties": {"threshold": "ge_13", "source": "HistorySUHI", "period": "2013-2025", "hotspot_percentile": "top_10_pct", "label": ">= 13 estati"}, "geometry": {"type": "Polygon", "coordinates": [[[11.262486190340061, 44.49136731188932], [11.262863209121685, 44.4913598391823], [11.262855785861408, 44.49116795765993], [11.26275959947422, 44.49118945821045], [11.262481840894315, 44.49125486570798], [11.262486190340061, 44.49136731188932]]]}}, {"type": "Feature", "properties": {"threshold": "ge_13", "source": "HistorySUHI", "period": "2013-2025", "hotspot_percentile": "top_10_pct", "label": ">= 13 estati"}, "geometry": {"type": "Polygon", "coordinates": [[[11.26360680235952, 44.49107501918122], [11.26360394424286, 44.49100116417936], [11.263239891988592, 44.491082293319224], [11.26360680235952, 44.49107501918122]]]}}, {"type": "Feature", "properties": {"threshold": "ge_13", "source": "HistorySUHI", "period": "2013-2025", "hotspot_percentile": "top_10_pct", "label": ">= 13 estati"}, "geometry": {"type": "Polygon", "coordinates": [[[11.26398381896616, 44.491067542813624], [11.264360835426382, 44.49106006520253], [11.264352501729281, 44.490844790446864], [11.264071832933858, 44.49090575916801], [11.26402761636276, 44.490906501057246], [11.264027317187702, 44.49090657000878], [11.263978013464014, 44.490917551032716], [11.26398381896616, 44.491067542813624]]]}}, {"type": "Feature", "properties": {"threshold": "ge_13", "source": "HistorySUHI", "period": "2013-2025", "hotspot_percentile": "top_10_pct", "label": ">= 13 estati"}, "geometry": {"type": "Polygon", "coordinates": [[[11.267711325119157, 44.51908160524256], [11.267700852234007, 44.51881173646561], [11.268078046588423, 44.518804242930415], [11.268067572111795, 44.51853437420884], [11.269199149078764, 44.51851188634564], [11.269178190136403, 44.51797214927911], [11.269555378688322, 44.51796465097572], [11.269544897699301, 44.51769478249048], [11.269922084366021, 44.51768728301261], [11.269901119352442, 44.51714754613824], [11.269523936162129, 44.51715504547575], [11.269502975212761, 44.51661530840197], [11.26912579535181, 44.51662280635452], [11.26911531683567, 44.51635293772534], [11.268738138565919, 44.516360434363136], [11.268727661934797, 44.51609056564904], [11.268350485256253, 44.51609806097212], [11.2683400105101, 44.51582819217313], [11.267962835422766, 44.51583568618151], [11.267952362561534, 44.515565817297635], [11.268329535910812, 44.51555832335937], [11.268319061458389, 44.51528845453088], [11.267941889847142, 44.51529594839899], [11.267931417279588, 44.5150260794856], [11.267554247259513, 44.51503357203908], [11.267533306040848, 44.514493834027796], [11.267910472584976, 44.51448634161456], [11.267889528477685, 44.51394660368449], [11.266758038832464, 44.51396907677007], [11.266768505598954, 44.51423894595278], [11.266391340352426, 44.51424643456243], [11.266401805527728, 44.51451630380049], [11.266024638396523, 44.514523791235696], [11.266056029588842, 44.51533339907155], [11.26567885709694, 44.51534088547244], [11.265720707121726, 44.516420362660625], [11.265343527530794, 44.51642784809719], [11.265353988665591, 44.51669771742739], [11.264976807189832, 44.5167052016894], [11.26500818625972, 44.51751480980168], [11.26463099942271, 44.51752229302916], [11.264641457667746, 44.51779216244046], [11.264264268945846, 44.51779964449332], [11.264274725599247, 44.51806951395988], [11.263897534992456, 44.51807699483809], [11.263918445262489, 44.518616733867], [11.26354125103247, 44.518624213640535], [11.263572612321889, 44.5194338222833], [11.263195412730155, 44.5194413010221], [11.263216317512462, 44.5199810401835], [11.262839114297286, 44.519988517817545], [11.262849565169804, 44.5202583874461], [11.26322677012346, 44.52025090974208], [11.26323722288102, 44.52052077928593], [11.263991635825608, 44.52050582000361], [11.264002092206786, 44.52077568939271], [11.265888130694616, 44.52073826905327], [11.265867200693846, 44.520198530960705], [11.266244404474294, 44.52019104329863], [11.266233937955555, 44.51992117430029], [11.26698834159924, 44.51990619538207], [11.266967402048351, 44.51936645762149], [11.267344600173164, 44.51935896643548], [11.267334128879545, 44.519089097603164], [11.267711325119157, 44.51908160524256]]]}}, {"type": "Feature", "properties": {"threshold": "ge_13", "source": "HistorySUHI", "period": "2013-2025", "hotspot_percentile": "top_10_pct", "label": ">= 13 estati"}, "geometry": {"type": "Polygon", "coordinates": [[[11.270771217406185, 44.52982384319716], [11.2707817084895, 44.53009371087785], [11.271158974846216, 44.5300862056806], [11.27113798934807, 44.52954647044493], [11.270383463444793, 44.52956147931335], [11.270372974394993, 44.52929161153293], [11.269618451381927, 44.52930661528036], [11.269607965957743, 44.52903674734476], [11.269230705969907, 44.529044247280595], [11.269220222432, 44.52877437926007], [11.268465705493805, 44.528789375256004], [11.268455225581352, 44.52851950708037], [11.268077968631026, 44.52852700314052], [11.268088446804253, 44.528796871386284], [11.26733392898436, 44.52881185991153], [11.267365353950003, 44.52962146498113], [11.266988089601869, 44.52962895758641], [11.267040458785665, 44.53097829942459], [11.267417731830694, 44.530970806468716], [11.26742820784755, 44.53124067472198], [11.267805482485123, 44.53123318045075], [11.267795004728818, 44.53096331226762], [11.268549550084241, 44.5309483201298], [11.268528588054792, 44.530408583999886], [11.269660394549087, 44.53038608687515], [11.26964990853673, 44.5301162189986], [11.270404441985663, 44.53010121482993], [11.270393952641681, 44.52983134707901], [11.270771217406185, 44.52982384319716]]]}}, {"type": "Feature", "properties": {"threshold": "ge_13", "source": "HistorySUHI", "period": "2013-2025", "hotspot_percentile": "top_10_pct", "label": ">= 13 estati"}, "geometry": {"type": "Polygon", "coordinates": [[[11.271620202849848, 44.53223763902837], [11.271997482827723, 44.532230130778714], [11.271986985348814, 44.53196026342686], [11.272364263439961, 44.53195275400221], [11.272332766668075, 44.53114315206891], [11.271578220775387, 44.53115816925137], [11.271567725624726, 44.530888301770204], [11.270813182622174, 44.53090331383133], [11.270823674293984, 44.53117318145297], [11.270446400832576, 44.53118068568596], [11.270456890912062, 44.53145055336306], [11.270079615564093, 44.531458056421044], [11.270090104051205, 44.53172792415361], [11.269712826816669, 44.53173542603657], [11.26972331371136, 44.53200529382457], [11.269346034590251, 44.53201279453249], [11.269356519892472, 44.53228266237592], [11.268979238884787, 44.53229016190877], [11.268990674156322, 44.5325845224993], [11.269056507779228, 44.532499250630394], [11.269086739650078, 44.53254559796996], [11.2690918219086, 44.532553311155866], [11.26917758980799, 44.53244856319944], [11.269466804753472, 44.532872397144835], [11.269847871927547, 44.53346743283226], [11.270117709504085, 44.53388174755583], [11.270493759363658, 44.53447039893323], [11.270501413019453, 44.534482733228096], [11.270501440270737, 44.534482786701325], [11.270579672297533, 44.53460894093023], [11.270530325587638, 44.53333962668954], [11.270907612965356, 44.53333212189473], [11.270886627414663, 44.532792386872856], [11.271263911166017, 44.532784880973225], [11.271253416871815, 44.532515013510384], [11.271630698736429, 44.53250750643572], [11.271620202849848, 44.53223763902837]]]}}, {"type": "Feature", "properties": {"threshold": "ge_13", "source": "HistorySUHI", "period": "2013-2025", "hotspot_percentile": "top_10_pct", "label": ">= 13 estati"}, "geometry": {"type": "Polygon", "coordinates": [[[11.268622921817357, 44.53283739611965], [11.268631185821032, 44.53305015450993], [11.268798133099818, 44.532833913843795], [11.268622921817357, 44.53283739611965]]]}}, {"type": "Feature", "properties": {"threshold": "ge_13", "source": "HistorySUHI", "period": "2013-2025", "hotspot_percentile": "top_10_pct", "label": ">= 13 estati"}, "geometry": {"type": "Polygon", "coordinates": [[[11.268256117561023, 44.53311476131196], [11.26826659823252, 44.53338462930689], [11.268374623069949, 44.53338248268008], [11.268387857603637, 44.53336534113326], [11.26841183518148, 44.533334265033936], [11.268497694456679, 44.53322306096136], [11.26858637321172, 44.533108198633556], [11.268256117561023, 44.53311476131196]]]}}, {"type": "Feature", "properties": {"threshold": "ge_13", "source": "HistorySUHI", "period": "2013-2025", "hotspot_percentile": "top_10_pct", "label": ">= 13 estati"}, "geometry": {"type": "Polygon", "coordinates": [[[11.274964310983947, 44.54054340348939], [11.27495379675842, 44.54027353708751], [11.274576465615166, 44.540281056164574], [11.274582115195248, 44.540426086783604], [11.274667277836674, 44.54054932249652], [11.274964310983947, 44.54054340348939]]]}}, {"type": "Feature", "properties": {"threshold": "ge_13", "source": "HistorySUHI", "period": "2013-2025", "hotspot_percentile": "top_10_pct", "label": ">= 13 estati"}, "geometry": {"type": "Polygon", "coordinates": [[[11.281086234396897, 44.49423809725494], [11.281075708892953, 44.49396822980628], [11.280698678068534, 44.493975762976], [11.280709201836434, 44.49424563049516], [11.281086234396897, 44.49423809725494]]]}}, {"type": "Feature", "properties": {"threshold": "ge_13", "source": "HistorySUHI", "period": "2013-2025", "hotspot_percentile": "top_10_pct", "label": ">= 13 estati"}, "geometry": {"type": "Polygon", "coordinates": [[[11.306958296930528, 44.49965989357853], [11.306979591042317, 44.50019961813703], [11.307356655033507, 44.50019199738066], [11.307367304049764, 44.50046185956634], [11.308498500336974, 44.50043898962053], [11.308466538107995, 44.49962940366102], [11.306958296930528, 44.49965989357853]]]}}, {"type": "Feature", "properties": {"threshold": "ge_13", "source": "HistorySUHI", "period": "2013-2025", "hotspot_percentile": "top_10_pct", "label": ">= 13 estati"}, "geometry": {"type": "Polygon", "coordinates": [[[11.295741771420793, 44.50231671289091], [11.295364690657562, 44.50232429558615], [11.295375285144825, 44.502594159944614], [11.294621119699366, 44.50260932174527], [11.294652893631628, 44.50341891515752], [11.29502998163895, 44.50341133466633], [11.295040574983492, 44.50368119903654], [11.295417664579135, 44.50367361723045], [11.295407069497765, 44.50340375293119], [11.29578415720805, 44.5033961699521], [11.295773560538409, 44.503126305709], [11.296150646363344, 44.50311872155693], [11.296129449996196, 44.50257899316829], [11.295752367644784, 44.502586577178405], [11.295741771420793, 44.50231671289091]]]}}, {"type": "Feature", "properties": {"threshold": "ge_13", "source": "HistorySUHI", "period": "2013-2025", "hotspot_percentile": "top_10_pct", "label": ">= 13 estati"}, "geometry": {"type": "Polygon", "coordinates": [[[11.314702456993013, 44.50463459875954], [11.314713141547882, 44.50490445933584], [11.314336049137696, 44.50491210501158], [11.314346732105484, 44.50518196564461], [11.31472382625254, 44.505174319897314], [11.314734511106986, 44.50544418044394], [11.315111606841139, 44.50543653338111], [11.315122293582293, 44.50570639384136], [11.315499390903545, 44.50569874546298], [11.31548870242548, 44.505428885074295], [11.31586579785998, 44.5054212355235], [11.315833728114239, 44.50461165448324], [11.315456637890321, 44.50461930381929], [11.315445950011604, 44.504349443371275], [11.31506886137467, 44.504357091391796], [11.315079547516572, 44.50462695191138], [11.314702456993013, 44.50463459875954]]]}}, {"type": "Feature", "properties": {"threshold": "ge_13", "source": "HistorySUHI", "period": "2013-2025", "hotspot_percentile": "top_10_pct", "label": ">= 13 estati"}, "geometry": {"type": "Polygon", "coordinates": [[[11.325949395118737, 44.5122382254875], [11.325927916995363, 44.51169850931174], [11.325550783774322, 44.51170619293117], [11.325540046675876, 44.511436334749106], [11.324408651321866, 44.51145937792635], [11.324397919586099, 44.51118951951379], [11.323643658739204, 44.511204875267154], [11.323632930628621, 44.510935016696045], [11.325518572930575, 44.510896618340425], [11.325507836283714, 44.5106267601138], [11.325884962555294, 44.510619076782], [11.325874224321653, 44.51034921861242], [11.324742850267286, 44.510372264659644], [11.324732117396039, 44.510102406259556], [11.32435499414756, 44.51011008571508], [11.324344263164047, 44.509840227228274], [11.321704408374499, 44.509893948077625], [11.321715127197097, 44.51016380706715], [11.32096087814412, 44.51017914482735], [11.320971593642374, 44.51044900394556], [11.320594467153219, 44.510456671031136], [11.320540899850517, 44.5091073749329], [11.319786663794302, 44.5091227046542], [11.319797373480009, 44.509392564047005], [11.319043133348769, 44.509407888935186], [11.319053839710122, 44.509677748456554], [11.318676717682091, 44.50968540910612], [11.318687422456266, 44.50995526868432], [11.31831029854088, 44.5099629281614], [11.318342408551903, 44.510772507022004], [11.318719537679277, 44.510764847329895], [11.318730243053782, 44.51103470684874], [11.319107373768444, 44.511027045840734], [11.319096666656563, 44.510757186393576], [11.320605181064366, 44.51072653020626], [11.32064803821105, 44.51180596675826], [11.321025173387136, 44.51179829931393], [11.321035889786806, 44.51206815834306], [11.322167299625875, 44.51204514832927], [11.322178021388224, 44.51231500712823], [11.322555159438116, 44.512307334563324], [11.322544435938294, 44.51203747583617], [11.322921572100373, 44.51202980209881], [11.322910847013445, 44.5117599434286], [11.323287981287713, 44.511752268518826], [11.323277254613732, 44.51148240990559], [11.323654387000193, 44.5114747338234], [11.323675843973406, 44.51201445089134], [11.324052979684312, 44.51200677342125], [11.324063710134002, 44.5122766318611], [11.323686572685633, 44.512284309403036], [11.32370803056134, 44.51282402638189], [11.324085171484711, 44.51281634869625], [11.324074440734133, 44.5125464902861], [11.325582995972875, 44.51251576738823], [11.325593733673474, 44.51278562551088], [11.325970873844364, 44.512777941603844], [11.325960134406268, 44.5125080835531], [11.326337272689095, 44.5125003984737], [11.326326531664092, 44.51223054048002], [11.325949395118737, 44.5122382254875]]]}}, {"type": "Feature", "properties": {"threshold": "ge_13", "source": "HistorySUHI", "period": "2013-2025", "hotspot_percentile": "top_10_pct", "label": ">= 13 estati"}, "geometry": {"type": "Polygon", "coordinates": [[[11.316855284067188, 44.511342853087775], [11.316478150714945, 44.51135050670209], [11.316488845965035, 44.51162036662116], [11.316865981054718, 44.511612712935225], [11.316876678192221, 44.51188257276783], [11.31800808777371, 44.51185960402964], [11.317997385423835, 44.51158974441197], [11.318374519913483, 44.511582085749055], [11.318363815976223, 44.511312226188224], [11.318740948578375, 44.51130456635274], [11.318730243053782, 44.51103470684874], [11.316844587229626, 44.51107299322549], [11.316855284067188, 44.511342853087775]]]}}, {"type": "Feature", "properties": {"threshold": "ge_13", "source": "HistorySUHI", "period": "2013-2025", "hotspot_percentile": "top_10_pct", "label": ">= 13 estati"}, "geometry": {"type": "Polygon", "coordinates": [[[11.310842470977443, 44.512004883576566], [11.310088192381006, 44.51202015003071], [11.310098858393326, 44.51229001113594], [11.309344575723673, 44.51230527275577], [11.30938722736761, 44.51338471759969], [11.310141523938023, 44.51336945540857], [11.31013085732753, 44.51309959436266], [11.310885149824491, 44.51308432733705], [11.31087447988834, 44.51281446641917], [11.311628768311722, 44.512799194559165], [11.31160742193796, 44.51225947296476], [11.310853140464818, 44.51227474453893], [11.310842470977443, 44.512004883576566]]]}}, {"type": "Feature", "properties": {"threshold": "ge_13", "source": "HistorySUHI", "period": "2013-2025", "hotspot_percentile": "top_10_pct", "label": ">= 13 estati"}, "geometry": {"type": "Polygon", "coordinates": [[[11.280388475342914, 44.51504799364415], [11.2807656420949, 44.5150404587071], [11.280755110436521, 44.514770592184625], [11.280377945422456, 44.514778127051166], [11.280388475342914, 44.51504799364415]]]}}, {"type": "Feature", "properties": {"threshold": "ge_13", "source": "HistorySUHI", "period": "2013-2025", "hotspot_percentile": "top_10_pct", "label": ">= 13 estati"}, "geometry": {"type": "Polygon", "coordinates": [[[11.275612566877765, 44.52810697851377], [11.275602054215344, 44.527837111643656], [11.27635655512439, 44.52782206875614], [11.276325007587154, 44.52701246847951], [11.27519327165415, 44.527035030309804], [11.275214292763781, 44.52757476426459], [11.274837043679836, 44.52758228252536], [11.27485806190079, 44.5281220165618], [11.275612566877765, 44.52810697851377]]]}}, {"type": "Feature", "properties": {"threshold": "ge_13", "source": "HistorySUHI", "period": "2013-2025", "hotspot_percentile": "top_10_pct", "label": ">= 13 estati"}, "geometry": {"type": "Polygon", "coordinates": [[[11.298289910623811, 44.52873297165037], [11.298268675570458, 44.52819324650074], [11.296382439059059, 44.52823120650308], [11.296350613680772, 44.5274216176019], [11.295973371149154, 44.527429205654286], [11.295952158451982, 44.526889479504135], [11.295197679898413, 44.52690465158998], [11.295208282694741, 44.527174514814426], [11.29483104145598, 44.52718209906087], [11.294852244016704, 44.52772182560734], [11.294474999151308, 44.52772940875073], [11.294496198828599, 44.52826913537992], [11.29487344717207, 44.5282615520946], [11.294905253020113, 44.52907114171446], [11.295282506432207, 44.52906355697119], [11.295293110418042, 44.52933342007723], [11.29567036542058, 44.52932583401791], [11.295659759695603, 44.52905597098285], [11.296414265776209, 44.52904079527101], [11.296424874979463, 44.52931065816405], [11.29755663820193, 44.52928788504528], [11.297546023781281, 44.52901802236534], [11.297923276151986, 44.52901042890668], [11.297912660141078, 44.528740566283005], [11.298289910623811, 44.52873297165037]]]}}, {"type": "Feature", "properties": {"threshold": "ge_13", "source": "HistorySUHI", "period": "2013-2025", "hotspot_percentile": "top_10_pct", "label": ">= 13 estati"}, "geometry": {"type": "Polygon", "coordinates": [[[11.293008390327662, 44.528839183208376], [11.29225388504988, 44.52885433636729], [11.292243295274277, 44.528584472664164], [11.290734289893388, 44.52861476375782], [11.29074487271251, 44.52888462774443], [11.290367619257102, 44.52889219747606], [11.290388781862235, 44.52943192554656], [11.290766038795969, 44.52942435567326], [11.290776622060308, 44.529694219615486], [11.291153880584831, 44.529686648426235], [11.291164465736802, 44.5299565122828], [11.292296245637319, 44.52993379103187], [11.2922856552677, 44.52966392738793], [11.293417428614003, 44.5296411951438], [11.29340683317534, 44.52937133169777], [11.293784088921134, 44.52936375186381], [11.293773491891892, 44.52909388847393], [11.29301898373004, 44.52910904675492], [11.293008390327662, 44.528839183208376]]]}}, {"type": "Feature", "properties": {"threshold": "ge_13", "source": "HistorySUHI", "period": "2013-2025", "hotspot_percentile": "top_10_pct", "label": ">= 13 estati"}, "geometry": {"type": "Polygon", "coordinates": [[[11.303603328476825, 44.529436100689914], [11.302848821100929, 44.52945132399833], [11.302838182183544, 44.52918146232911], [11.302460930010923, 44.529189072044524], [11.302450292981819, 44.52891921028928], [11.301695791667305, 44.52893442584257], [11.301706425218212, 44.52920428774021], [11.300951919829048, 44.5292194984557], [11.300941289756347, 44.52894963641573], [11.300564038577264, 44.52895723983475], [11.30059592402517, 44.529766826123684], [11.301350436669056, 44.529751617613655], [11.301361068928134, 44.53002147953802], [11.30098381094155, 44.53002908448675], [11.301005072428575, 44.53056880843337], [11.301382333893587, 44.53056120334232], [11.301392966599964, 44.530831065222245], [11.30063844004236, 44.530846274301574], [11.300649069419288, 44.53111613630902], [11.301780864249876, 44.53109332060883], [11.301770229655123, 44.5308234588149], [11.30252475531803, 44.53080824226486], [11.302514117393917, 44.53053838059851], [11.303268638981637, 44.53052315921045], [11.30325799772827, 44.53025329767173], [11.303635256559097, 44.53024568518128], [11.303603328476825, 44.529436100689914]]]}}, {"type": "Feature", "properties": {"threshold": "ge_13", "source": "HistorySUHI", "period": "2013-2025", "hotspot_percentile": "top_10_pct", "label": ">= 13 estati"}, "geometry": {"type": "Polygon", "coordinates": [[[11.313088051855757, 44.53059468762075], [11.313465310276618, 44.530587042615366], [11.313443933704404, 44.53004732340774], [11.313066678761858, 44.53005496827004], [11.31305599243969, 44.52978510857245], [11.312678739086413, 44.52979275211817], [11.312700108402332, 44.5303324716416], [11.31307736523388, 44.530324827952825], [11.313088051855757, 44.53059468762075]]]}}, {"type": "Feature", "properties": {"threshold": "ge_13", "source": "HistorySUHI", "period": "2013-2025", "hotspot_percentile": "top_10_pct", "label": ">= 13 estati"}, "geometry": {"type": "Polygon", "coordinates": [[[11.289718896077085, 44.531605974381364], [11.29009616722188, 44.53159840643168], [11.290085586397359, 44.53132854245134], [11.290462855654399, 44.53132097332732], [11.290452273238909, 44.531051109403016], [11.290829540608204, 44.531043539104665], [11.29081895660179, 44.530773675236425], [11.290441690971814, 44.530781245463935], [11.290431108853118, 44.53051138151004], [11.290053844814047, 44.53051895042157], [11.290043264583018, 44.53024908638207], [11.28928873953835, 44.53026422032811], [11.289299316290823, 44.53053408450923], [11.288544787174317, 44.53054921361634], [11.288587081752677, 44.53162867075928], [11.288964353342461, 44.53162110654516], [11.288996081051472, 44.53243069903469], [11.289373357711234, 44.53242313336298], [11.289383935650338, 44.53269299742579], [11.292779434565261, 44.53262484970799], [11.292768840970977, 44.53235498628291], [11.29239156564713, 44.53236256316155], [11.292380973940832, 44.532092699650775], [11.293890067387073, 44.532062384948695], [11.293868870504948, 44.531522658450115], [11.293114331036533, 44.53153781800782], [11.293103736297105, 44.53126795459447], [11.291971931198315, 44.53129068437953], [11.291982520719671, 44.531560548005594], [11.291227979765885, 44.531575695111556], [11.291238565956965, 44.53184555886455], [11.289729475310585, 44.53187583841772], [11.289718896077085, 44.531605974381364]]]}}, {"type": "Feature", "properties": {"threshold": "ge_13", "source": "HistorySUHI", "period": "2013-2025", "hotspot_percentile": "top_10_pct", "label": ">= 13 estati"}, "geometry": {"type": "Polygon", "coordinates": [[[11.296174921446871, 44.532556601127425], [11.296552197023482, 44.532549011725756], [11.296520364503808, 44.53173942353519], [11.295011282177695, 44.5317697728186], [11.29502188591125, 44.532039635847596], [11.293890067387073, 44.532062384948695], [11.29391126486371, 44.532602111388066], [11.294665817652886, 44.53258694628204], [11.294655215361367, 44.53231708321165], [11.295032489793506, 44.53230949886179], [11.295043093824464, 44.53257936186121], [11.295420369847337, 44.53257177619515], [11.295430975766463, 44.53284163910877], [11.29618553084491, 44.53282646389904], [11.296174921446871, 44.532556601127425]]]}}, {"type": "Feature", "properties": {"threshold": "ge_13", "source": "HistorySUHI", "period": "2013-2025", "hotspot_percentile": "top_10_pct", "label": ">= 13 estati"}, "geometry": {"type": "Polygon", "coordinates": [[[11.312774905727885, 44.53222148950636], [11.313529443590529, 44.532206199882225], [11.31350806521966, 44.531666480852614], [11.312753534314231, 44.53168177019059], [11.312774905727885, 44.53222148950636]]]}}, {"type": "Feature", "properties": {"threshold": "ge_13", "source": "HistorySUHI", "period": "2013-2025", "hotspot_percentile": "top_10_pct", "label": ">= 13 estati"}, "geometry": {"type": "Polygon", "coordinates": [[[11.288639953311982, 44.53297799185518], [11.289017233599042, 44.532970427287104], [11.289006657251099, 44.532700563168305], [11.288629378703543, 44.532708127665565], [11.288639953311982, 44.53297799185518]]]}}, {"type": "Feature", "properties": {"threshold": "ge_13", "source": "HistorySUHI", "period": "2013-2025", "hotspot_percentile": "top_10_pct", "label": ">= 13 estati"}, "geometry": {"type": "Polygon", "coordinates": [[[11.282603448567565, 44.53309885558992], [11.282226165762815, 44.533106398988636], [11.282215620726328, 44.53283653359741], [11.281083776643545, 44.53285915611023], [11.28109431646138, 44.533129021713165], [11.279962465829675, 44.53315163323026], [11.279973000576565, 44.53342149903001], [11.279595714997575, 44.53342903378234], [11.279627314905758, 44.53423863130448], [11.279250023960136, 44.53424616502301], [11.279260555818611, 44.534516030904676], [11.278883262985604, 44.53452356344838], [11.278893793252061, 44.53479342938577], [11.281534852158567, 44.53474067493417], [11.281524309714152, 44.53447080949045], [11.281901601512763, 44.53446326822942], [11.28189105747652, 44.53419340284152], [11.282268347387593, 44.534185860405756], [11.282236710947181, 44.53337626436508], [11.282613995491504, 44.53336872089578], [11.282603448567565, 44.53309885558992]]]}}, {"type": "Feature", "properties": {"threshold": "ge_13", "source": "HistorySUHI", "period": "2013-2025", "hotspot_percentile": "top_10_pct", "label": ">= 13 estati"}, "geometry": {"type": "Polygon", "coordinates": [[[11.283138976710974, 44.53713928792268], [11.28314952759372, 44.53740915293621], [11.284658768085238, 44.53737895738685], [11.284627095002067, 44.536569363149624], [11.28538170392015, 44.53655425832632], [11.28537114304219, 44.53628439369236], [11.286125747888157, 44.536269284028826], [11.286115183678664, 44.53599941952147], [11.286492484139616, 44.535991862892324], [11.28647135268553, 44.53545213397469], [11.286094055704131, 44.5354596904624], [11.286072928322184, 44.5349199613442], [11.286450221824126, 44.534912404997904], [11.286439656615672, 44.534642540487326], [11.286816948229758, 44.53463498296643], [11.286806381429804, 44.53436511851179], [11.287183671156038, 44.53435755981629], [11.287151966426432, 44.53354796657585], [11.28564282750789, 44.53357819303735], [11.285653388644514, 44.53384805774848], [11.284521527681619, 44.5338707147312], [11.284542639961357, 44.534410444533165], [11.284165349198336, 44.53441799451144], [11.284175903820582, 44.5346878594609], [11.283421318371156, 44.534702955822794], [11.283431869662001, 44.534972820898744], [11.283054574975612, 44.534980367282316], [11.283075674521722, 44.535520097531084], [11.28383027070552, 44.53550500323611], [11.28386193157318, 44.53631459807466], [11.284239234662506, 44.53630704884719], [11.284249790320924, 44.53657691369316], [11.283872485491745, 44.53658446299128], [11.28388303955832, 44.53685432789311], [11.283505732841252, 44.53686187601645], [11.283516285315937, 44.53713174097413], [11.283138976710974, 44.53713928792268]]]}}, {"type": "Feature", "properties": {"threshold": "ge_13", "source": "HistorySUHI", "period": "2013-2025", "hotspot_percentile": "top_10_pct", "label": ">= 13 estati"}, "geometry": {"type": "Polygon", "coordinates": [[[11.282698376207883, 44.53552764281053], [11.282708924463076, 44.53579750798337], [11.283086224516703, 44.53578996263332], [11.283075674521722, 44.535520097531084], [11.282698376207883, 44.53552764281053]]]}}, {"type": "Feature", "properties": {"threshold": "ge_13", "source": "HistorySUHI", "period": "2013-2025", "hotspot_percentile": "top_10_pct", "label": ">= 13 estati"}, "geometry": {"type": "Polygon", "coordinates": [[[11.275561226205168, 44.536480365990116], [11.276315838737418, 44.536465321088016], [11.276305319763964, 44.53619545474616], [11.27668262406894, 44.53618793049738], [11.27667210350315, 44.53591806421115], [11.27591749822539, 44.535933111322464], [11.275928015311468, 44.53620297774951], [11.275550710711478, 44.53621049950745], [11.275561226205168, 44.536480365990116]]]}}, {"type": "Feature", "properties": {"threshold": "ge_13", "source": "HistorySUHI", "period": "2013-2025", "hotspot_percentile": "top_10_pct", "label": ">= 13 estati"}, "geometry": {"type": "Polygon", "coordinates": [[[11.280194264392287, 44.539088677411534], [11.280173188840298, 44.53854894641786], [11.280927825668522, 44.53853387049705], [11.280917284634109, 44.53826400511913], [11.281671917390915, 44.53824892435742], [11.281650828805557, 44.53770919383948], [11.28127351598109, 44.537716734701945], [11.281262973650193, 44.537446869350255], [11.280885662417848, 44.537454408896686], [11.280875121974743, 44.53718454345966], [11.280497812334525, 44.537192081690094], [11.280487273779165, 44.536922216167746], [11.280109965731075, 44.5369297530822], [11.280099429063416, 44.53665988747453], [11.279344816003766, 44.53667495742611], [11.279355349191615, 44.536944823174785], [11.276714186651578, 44.536997529267424], [11.276735229111083, 44.53753726170694], [11.276357916106466, 44.537544786307784], [11.27636843581755, 44.537814652575804], [11.276745750562167, 44.537807127904536], [11.27675627216081, 44.538076994087376], [11.277510904687388, 44.53806194086753], [11.277500379608703, 44.53779207482557], [11.278255008064813, 44.537777016764664], [11.278265536623529, 44.53804688266571], [11.27902016796904, 44.53803181948192], [11.279030700155488, 44.53830168522723], [11.278276065329903, 44.538316748551985], [11.27828659418394, 44.53858661442349], [11.277909274809584, 44.53859414428807], [11.277919802071192, 44.538864010215256], [11.276787837842107, 44.53888659254724], [11.276777315800778, 44.538616726408726], [11.27489071450179, 44.538654338366065], [11.274911741330865, 44.53919407133228], [11.275289065365888, 44.53918655129112], [11.275320611935914, 44.53999615041856], [11.274943282680349, 44.540003670670856], [11.27495379675842, 44.54027353708751], [11.276085789303336, 44.54025097238274], [11.276075270004583, 44.53998110617724], [11.276829927483133, 44.539966056953595], [11.276819404851517, 44.53969619087417], [11.277574058259374, 44.53968113680909], [11.277563532294998, 44.53941127085575], [11.279450154529998, 44.53937361424809], [11.279439620012571, 44.53910374863239], [11.280194264392287, 44.539088677411534]]]}}, {"type": "Feature", "properties": {"threshold": "ge_13", "source": "HistorySUHI", "period": "2013-2025", "hotspot_percentile": "top_10_pct", "label": ">= 13 estati"}, "geometry": {"type": "Polygon", "coordinates": [[[11.336627386924807, 44.505538307240826], [11.337004477402996, 44.505530587884536], [11.336993689773958, 44.505260731609646], [11.336616601032558, 44.5052684508937], [11.336605815291513, 44.5049985945317], [11.336228728135678, 44.505006312499624], [11.33621794428258, 44.50473645605053], [11.334709601094717, 44.504767315194286], [11.334720378000814, 44.50503717193216], [11.333966202026804, 44.50505259418494], [11.334009297267462, 44.50613202156505], [11.335140581843682, 44.50610888545398], [11.335129802596398, 44.505839028847774], [11.335506895416094, 44.505831314395024], [11.335517676400226, 44.50610117092906], [11.33589477080563, 44.506093455160155], [11.335883988084651, 44.50582359869831], [11.336638172968263, 44.505808163573086], [11.336627386924807, 44.505538307240826]]]}}, {"type": "Feature", "properties": {"threshold": "ge_13", "source": "HistorySUHI", "period": "2013-2025", "hotspot_percentile": "top_10_pct", "label": ">= 13 estati"}, "geometry": {"type": "Polygon", "coordinates": [[[11.325799060901293, 44.5084602110095], [11.326553285197333, 44.50844484176397], [11.326542544693773, 44.5081749836194], [11.326919654878838, 44.508167297202434], [11.326908912788772, 44.507897439114934], [11.327286021086165, 44.50788975152582], [11.327275277409642, 44.50761989349541], [11.327652383819368, 44.50761220473421], [11.327641638556438, 44.50734234676088], [11.328018743078498, 44.50733465682758], [11.32800799622921, 44.507064798911365], [11.328385098863613, 44.50705710780602], [11.328342106025302, 44.505977676280445], [11.327965010338636, 44.505985367097914], [11.327943518297259, 44.50544565110204], [11.326812240754654, 44.50546871565889], [11.326822981489455, 44.50573857388009], [11.326068792234427, 44.505753944175375], [11.326058054973347, 44.50548408581034], [11.325680961856897, 44.50549176902013], [11.325659491259962, 44.5049520521017], [11.325282401466673, 44.50495973392375], [11.325228736291672, 44.50361044100832], [11.324851655031654, 44.50361812122708], [11.324819462942115, 44.50280854508399], [11.324442386741627, 44.50281622384328], [11.32443165808257, 44.50254636502735], [11.324054583468286, 44.50255404247095], [11.324043856696214, 44.50228418356833], [11.32291263716098, 44.502307208220614], [11.322923358723289, 44.5025770673387], [11.322546283507654, 44.50258473980693], [11.322567723609916, 44.50312445814217], [11.32294480229881, 44.50311678553033], [11.322955524312029, 44.503386644603864], [11.322201363310624, 44.50340198872727], [11.322276397297246, 44.50529100283148], [11.323784767328164, 44.50526030759852], [11.323774040789063, 44.504990448772574], [11.324151131184085, 44.50498277192629], [11.324129675083416, 44.50444305437348], [11.324883848475093, 44.504427697236515], [11.324905311522915, 44.50496741450187], [11.32452822142871, 44.504975093836045], [11.324538951441466, 44.50524495251831], [11.324161859460014, 44.505252630680395], [11.324172587886343, 44.50552248941967], [11.323795494017638, 44.505530166409635], [11.323806220857493, 44.50580002520589], [11.322297836931602, 44.50583072101335], [11.322287117039282, 44.505560861929844], [11.321910022418932, 44.50556853269996], [11.321920740574361, 44.50583839185526], [11.32154364406686, 44.50584606145318], [11.32156507735464, 44.506385779862775], [11.321187977223042, 44.506393448360235], [11.32119869235532, 44.50666330761451], [11.320821590336537, 44.50667097493971], [11.32083230388204, 44.50694083425091], [11.320455199976065, 44.50694850040383], [11.320465911934741, 44.50721835977191], [11.32008880614157, 44.50722602475252], [11.320099516513373, 44.507495884177494], [11.320476624043593, 44.50748821912516], [11.320487336302623, 44.50775807846356], [11.320864445419739, 44.50775041209543], [11.320875159566041, 44.50802027134725], [11.321252270270044, 44.50801260366328], [11.32126298630367, 44.508282462828504], [11.322017210735183, 44.5082671235848], [11.322027930393316, 44.50853698259163], [11.321650816515554, 44.508544652907304], [11.321672252808332, 44.50908437101996], [11.320918017653348, 44.50909970820605], [11.320928732550708, 44.509369567383644], [11.321305851940535, 44.50936189934091], [11.321316568725354, 44.5096317584319], [11.322825051730911, 44.50960107353242], [11.322814327997166, 44.50933121472858], [11.324322801648345, 44.50930051021011], [11.324312071116152, 44.50903065167875], [11.325066303564832, 44.50901529209847], [11.325055569708745, 44.508745433696006], [11.325809798081169, 44.50873006928305], [11.325799060901293, 44.5084602110095]], [[11.324496032292963, 44.50416551770014], [11.324485302881877, 44.50389565895846], [11.324862386029029, 44.503887979911724], [11.324873117176843, 44.50415783858155], [11.324496032292963, 44.50416551770014]]]}}, {"type": "Feature", "properties": {"threshold": "ge_13", "source": "HistorySUHI", "period": "2013-2025", "hotspot_percentile": "top_10_pct", "label": ">= 13 estati"}, "geometry": {"type": "Polygon", "coordinates": [[[11.352874723254939, 44.506014811267754], [11.352885584435871, 44.50628466443861], [11.353262675336158, 44.506276891303486], [11.353273538406151, 44.506546744386696], [11.35402772322344, 44.50653119423918], [11.354016856679852, 44.50626134130149], [11.35439394712321, 44.5062535644346], [11.354361343196205, 44.50544400575042], [11.35285300134985, 44.50547510488134], [11.352842140625686, 44.505205251665785], [11.352465056520108, 44.50521302326608], [11.35245419768488, 44.50494316996291], [11.349814616841694, 44.50499753582758], [11.349825463520077, 44.5052673896395], [11.34680877668283, 44.50532944800448], [11.346819609619379, 44.505599302382244], [11.346442521344342, 44.50560705415288], [11.346453352695981, 44.50587690858831], [11.346076262532327, 44.50588465918756], [11.346087092299014, 44.50615451368062], [11.346464184199467, 44.506146763008836], [11.346507511731893, 44.507226180542055], [11.34688461042793, 44.50721842833616], [11.346906278579128, 44.50775813686835], [11.348791787149842, 44.50771935645345], [11.348780944313628, 44.507449502557705], [11.349535143204182, 44.50743398182901], [11.349480913934606, 44.50608471285305], [11.350989275153987, 44.50605365792098], [11.350978422809117, 44.50578380437172], [11.352486774647252, 44.50575272982774], [11.35249763393917, 44.50602258308622], [11.352874723254939, 44.506014811267754]]]}}, {"type": "Feature", "properties": {"threshold": "ge_13", "source": "HistorySUHI", "period": "2013-2025", "hotspot_percentile": "top_10_pct", "label": ">= 13 estati"}, "geometry": {"type": "Polygon", "coordinates": [[[11.344190809437253, 44.505923393524974], [11.344179988506296, 44.505653538654556], [11.34267163024671, 44.50568450344399], [11.342682444230489, 44.50595435860417], [11.34155116873353, 44.50597756935226], [11.341561977658426, 44.50624742471475], [11.342316164948292, 44.506231951981846], [11.342326977498427, 44.50650180718468], [11.341949882192418, 44.5065095442455], [11.342003938532237, 44.50785882039843], [11.343135250049317, 44.507835604397826], [11.343124433267313, 44.507565749414255], [11.343878636713265, 44.50755026600532], [11.343867816609023, 44.507280411151775], [11.344244916367542, 44.507272667653766], [11.344234094678074, 44.50700281285777], [11.344611192547974, 44.50699506818826], [11.344567900359758, 44.50591564914535], [11.344190809437253, 44.505923393524974]]]}}, {"type": "Feature", "properties": {"threshold": "ge_13", "source": "HistorySUHI", "period": "2013-2025", "hotspot_percentile": "top_10_pct", "label": ">= 13 estati"}, "geometry": {"type": "Polygon", "coordinates": [[[11.330001070022133, 44.50972490583806], [11.330378189273786, 44.50971720779228], [11.330356672167431, 44.50917749307651], [11.329979556390157, 44.50918519097822], [11.330001070022133, 44.50972490583806]]]}}, {"type": "Feature", "properties": {"threshold": "ge_13", "source": "HistorySUHI", "period": "2013-2025", "hotspot_percentile": "top_10_pct", "label": ">= 13 estati"}, "geometry": {"type": "Polygon", "coordinates": [[[11.327414956953497, 44.51112804673209], [11.327037827809594, 44.51113573518451], [11.32705931575504, 44.51167545098812], [11.326682182985747, 44.511683138340224], [11.326692925446999, 44.51195299629169], [11.327447194309789, 44.51193762019939], [11.327414956953497, 44.51112804673209]]]}}, {"type": "Feature", "properties": {"threshold": "ge_13", "source": "HistorySUHI", "period": "2013-2025", "hotspot_percentile": "top_10_pct", "label": ">= 13 estati"}, "geometry": {"type": "Polygon", "coordinates": [[[11.338405618095338, 44.512253818970386], [11.339537017542693, 44.512230636819794], [11.33952621570778, 44.511960781350496], [11.338394821472582, 44.51198396328415], [11.338405618095338, 44.512253818970386]]]}}, {"type": "Feature", "properties": {"threshold": "ge_13", "source": "HistorySUHI", "period": "2013-2025", "hotspot_percentile": "top_10_pct", "label": ">= 13 estati"}, "geometry": {"type": "Polygon", "coordinates": [[[11.324871656459841, 44.513610564302276], [11.324860921782754, 44.513340706080406], [11.324483777685218, 44.513348386398356], [11.324494510624724, 44.51361824469208], [11.324871656459841, 44.513610564302276]]]}}, {"type": "Feature", "properties": {"threshold": "ge_13", "source": "HistorySUHI", "period": "2013-2025", "hotspot_percentile": "top_10_pct", "label": ">= 13 estati"}, "geometry": {"type": "Polygon", "coordinates": [[[11.33881514738466, 44.5130556595836], [11.338836745467521, 44.513595370677564], [11.34034531190451, 44.513564452231535], [11.340334505837367, 44.513294596981304], [11.340711645330423, 44.513286864331484], [11.340700837677309, 44.51301700913876], [11.339192285746085, 44.51304793198313], [11.339181485194297, 44.512778076486136], [11.338427211794961, 44.51279353029821], [11.338438008871831, 44.51306338593982], [11.33881514738466, 44.5130556595836]]]}}, {"type": "Feature", "properties": {"threshold": "ge_13", "source": "HistorySUHI", "period": "2013-2025", "hotspot_percentile": "top_10_pct", "label": ">= 13 estati"}, "geometry": {"type": "Polygon", "coordinates": [[[11.324882391287431, 44.51388042250928], [11.32601383310246, 44.51385737365826], [11.326003093062074, 44.51358751566694], [11.324871656459841, 44.513610564302276], [11.324882391287431, 44.51388042250928]]]}}, {"type": "Feature", "properties": {"threshold": "ge_13", "source": "HistorySUHI", "period": "2013-2025", "hotspot_percentile": "top_10_pct", "label": ">= 13 estati"}, "geometry": {"type": "Polygon", "coordinates": [[[11.32903100464863, 44.513795855305524], [11.329041758740466, 44.514065712706326], [11.328664611087044, 44.514073406927515], [11.328686116247772, 44.5146131218285], [11.329063267376466, 44.51460542746331], [11.329074021920636, 44.514875284819496], [11.32945117463622, 44.51486758913795], [11.329440418354379, 44.51459773185376], [11.329817569181486, 44.51459003499987], [11.329806811312807, 44.514320177772845], [11.330183960251444, 44.51431247974665], [11.330173200795976, 44.51404262257681], [11.329796053594956, 44.51405032053096], [11.329785296027927, 44.513780463274216], [11.32903100464863, 44.513795855305524]]]}}, {"type": "Feature", "properties": {"threshold": "ge_13", "source": "HistorySUHI", "period": "2013-2025", "hotspot_percentile": "top_10_pct", "label": ">= 13 estati"}, "geometry": {"type": "Polygon", "coordinates": [[[11.358901296244056, 44.51507304702755], [11.35892308124286, 44.51561275015574], [11.359300230657448, 44.515604955809565], [11.359322019742368, 44.51614465873224], [11.359699172479461, 44.51613686299585], [11.359677379919296, 44.51559716021909], [11.360054529028377, 44.51558936338429], [11.36004363123986, 44.51531951204649], [11.360420778458574, 44.515311714040365], [11.360398979864808, 44.51477201146596], [11.359267548175618, 44.514795401313705], [11.359278442183491, 44.515065252827235], [11.358901296244056, 44.51507304702755]]]}}, {"type": "Feature", "properties": {"threshold": "ge_13", "source": "HistorySUHI", "period": "2013-2025", "hotspot_percentile": "top_10_pct", "label": ">= 13 estati"}, "geometry": {"type": "Polygon", "coordinates": [[[11.360497078350438, 44.51720067258095], [11.3612513966565, 44.517185071813934], [11.361240492738036, 44.51691522078459], [11.360863335399152, 44.516923021717275], [11.36083062977402, 44.51611346832073], [11.361207781899884, 44.516105667607036], [11.361196878592905, 44.51583581651802], [11.360442577663582, 44.5158514165551], [11.360497078350438, 44.51720067258095]]]}}, {"type": "Feature", "properties": {"threshold": "ge_13", "source": "HistorySUHI", "period": "2013-2025", "hotspot_percentile": "top_10_pct", "label": ">= 13 estati"}, "geometry": {"type": "Polygon", "coordinates": [[[11.323545466585573, 44.51822887078146], [11.323534736301575, 44.517959012524635], [11.323911910392757, 44.517951334718276], [11.32386898380944, 44.51687190182982], [11.321983146608206, 44.51691027698007], [11.322026038432627, 44.51798971130501], [11.322403213125448, 44.517982038476674], [11.322413938195432, 44.51825189694899], [11.323545466585573, 44.51822887078146]]]}}, {"type": "Feature", "properties": {"threshold": "ge_13", "source": "HistorySUHI", "period": "2013-2025", "hotspot_percentile": "top_10_pct", "label": ">= 13 estati"}, "geometry": {"type": "Polygon", "coordinates": [[[11.354259303237983, 44.521650714735586], [11.354270176730724, 44.52192056689656], [11.353892985208239, 44.52192834549628], [11.353958218936814, 44.52354745858585], [11.354335420888916, 44.52353967954939], [11.354346295448929, 44.52380953160601], [11.355855108685725, 44.52377840272223], [11.35584422717232, 44.523508550956876], [11.356598629398682, 44.52349297919268], [11.356587744561219, 44.52322312755814], [11.356964943707167, 44.523215339881936], [11.356954057284035, 44.52294548830537], [11.357331254539057, 44.522937699457394], [11.357287703420013, 44.52185829329355], [11.357664893569483, 44.52185050349254], [11.357654004433204, 44.52158065198719], [11.360671506225298, 44.52151828935783], [11.360627895588097, 44.520438885521585], [11.36100507567214, 44.52043108488438], [11.360994171656982, 44.52016123396101], [11.360616993310956, 44.520169034525225], [11.360606091186671, 44.51989918351396], [11.36022891442578, 44.51990698276069], [11.36023981481207, 44.52017683384495], [11.359862636160354, 44.520184631920145], [11.35985173751206, 44.51991478076293], [11.357965850651839, 44.51995375210673], [11.357976740610113, 44.520223603628644], [11.357599561041903, 44.520231394236816], [11.357610449414828, 44.52050124581671], [11.357233267955914, 44.52050903525327], [11.35724415474344, 44.520778886891144], [11.356866971393822, 44.52078667515604], [11.356877856595903, 44.52105652685189], [11.355746300417138, 44.52107988439794], [11.355735420429346, 44.520810032483524], [11.355358236469394, 44.52081781577027], [11.355379993121304, 44.52135751972987], [11.3550028055326, 44.52136530191772], [11.355013682349192, 44.52163515394798], [11.354259303237983, 44.521650714735586]], [[11.357621337940417, 44.520771097381704], [11.357632226618673, 44.52104094893177], [11.357255041683612, 44.521048738514104], [11.35724415474344, 44.520778886891144], [11.357621337940417, 44.520771097381704]]]}}, {"type": "Feature", "properties": {"threshold": "ge_13", "source": "HistorySUHI", "period": "2013-2025", "hotspot_percentile": "top_10_pct", "label": ">= 13 estati"}, "geometry": {"type": "Polygon", "coordinates": [[[11.36031612179559, 44.52206579101708], [11.360693312461112, 44.522057991186465], [11.360682409266769, 44.521788140279604], [11.36030522033941, 44.52179594003724], [11.36031612179559, 44.52206579101708]]]}}, {"type": "Feature", "properties": {"threshold": "ge_13", "source": "HistorySUHI", "period": "2013-2025", "hotspot_percentile": "top_10_pct", "label": ">= 13 estati"}, "geometry": {"type": "Polygon", "coordinates": [[[11.357342142700475, 44.52320755096109], [11.357719341541113, 44.52319976079559], [11.357708451641415, 44.5229299093648], [11.357331254539057, 44.522937699457394], [11.357342142700475, 44.52320755096109]]]}}, {"type": "Feature", "properties": {"threshold": "ge_13", "source": "HistorySUHI", "period": "2013-2025", "hotspot_percentile": "top_10_pct", "label": ">= 13 estati"}, "geometry": {"type": "Polygon", "coordinates": [[[11.346769673779969, 44.52315531672561], [11.346015270588476, 44.523170823476526], [11.346026106600224, 44.52344067716173], [11.34640331001031, 44.52343292433605], [11.346424985966413, 44.52397263151668], [11.346802192701324, 44.523964877301204], [11.346769673779969, 44.52315531672561]]]}}, {"type": "Feature", "properties": {"threshold": "ge_13", "source": "HistorySUHI", "period": "2013-2025", "hotspot_percentile": "top_10_pct", "label": ">= 13 estati"}, "geometry": {"type": "Polygon", "coordinates": [[[11.335248943835738, 44.52771280264054], [11.335259731853965, 44.52798265818666], [11.33412802407241, 44.52800580437172], [11.334138807025349, 44.528275660119554], [11.33564775738698, 44.52824479576081], [11.335626177721586, 44.52770508482793], [11.335248943835738, 44.52771280264054]]]}}, {"type": "Feature", "properties": {"threshold": "ge_13", "source": "HistorySUHI", "period": "2013-2025", "hotspot_percentile": "top_10_pct", "label": ">= 13 estati"}, "geometry": {"type": "Polygon", "coordinates": [[[11.334526829685643, 44.528537801558016], [11.334537614679897, 44.52880765720392], [11.33378313193857, 44.528823084692334], [11.333793913606195, 44.529092940467734], [11.334925642708132, 44.529069797151124], [11.334904069090568, 44.5285300860186], [11.334526829685643, 44.528537801558016]]]}}, {"type": "Feature", "properties": {"threshold": "ge_13", "source": "HistorySUHI", "period": "2013-2025", "hotspot_percentile": "top_10_pct", "label": ">= 13 estati"}, "geometry": {"type": "Polygon", "coordinates": [[[11.334623900078508, 44.530966501835785], [11.335755664792394, 44.53094334953293], [11.335744873370928, 44.530673494222654], [11.336122126233848, 44.53066577437055], [11.33611133322464, 44.53039591911762], [11.335734082100783, 44.530403638897496], [11.33572329098196, 44.53013378355747], [11.3345915419197, 44.53015693521036], [11.334623900078508, 44.530966501835785]]]}}, {"type": "Feature", "properties": {"threshold": "ge_13", "source": "HistorySUHI", "period": "2013-2025", "hotspot_percentile": "top_10_pct", "label": ">= 13 estati"}, "geometry": {"type": "Polygon", "coordinates": [[[11.356159853016168, 44.53133424609932], [11.356537104627417, 44.53132645872657], [11.356526217101898, 44.53105660745152], [11.35614896722967, 44.53106439475139], [11.35613808159582, 44.530794543388566], [11.355760833309947, 44.5308023293706], [11.355749949567715, 44.530532477920005], [11.3553727028682, 44.53054026258424], [11.355361821017539, 44.53027041104589], [11.355739065978096, 44.5302626264545], [11.355728182541094, 44.52999277497409], [11.354596452418477, 44.53001612479486], [11.354607330638682, 44.53028597649378], [11.353852839649662, 44.530301536961844], [11.353874589591792, 44.53084124060618], [11.353497340390573, 44.530849019118364], [11.353529961230379, 44.53165857469143], [11.353152706659559, 44.531666352176956], [11.353163578838693, 44.53193620407761], [11.353918091306033, 44.53192064771598], [11.353928967115856, 44.532190499456156], [11.354306224859888, 44.532182719335], [11.354284469914555, 44.531643015985324], [11.35390721564872, 44.531650795960886], [11.353896340143908, 44.531380944190886], [11.354650845044928, 44.53136538314036], [11.35466172402786, 44.531635234764735], [11.356170738955312, 44.53160409743234], [11.356159853016168, 44.53133424609932]]]}}, {"type": "Feature", "properties": {"threshold": "ge_13", "source": "HistorySUHI", "period": "2013-2025", "hotspot_percentile": "top_10_pct", "label": ">= 13 estati"}, "geometry": {"type": "Polygon", "coordinates": [[[11.360331422628878, 44.53178821757127], [11.360708676037456, 44.53178041635766], [11.36069776907698, 44.53151056591479], [11.360320517407445, 44.53151836705539], [11.360331422628878, 44.53178821757127]]]}}, {"type": "Feature", "properties": {"threshold": "ge_13", "source": "HistorySUHI", "period": "2013-2025", "hotspot_percentile": "top_10_pct", "label": ">= 13 estati"}, "geometry": {"type": "Polygon", "coordinates": [[[11.360342328003233, 44.532058068072224], [11.360331422628878, 44.53178821757127], [11.359954169067379, 44.531796017539875], [11.359965072702666, 44.53206586811382], [11.360342328003233, 44.532058068072224]]]}}, {"type": "Feature", "properties": {"threshold": "ge_13", "source": "HistorySUHI", "period": "2013-2025", "hotspot_percentile": "top_10_pct", "label": ">= 13 estati"}, "geometry": {"type": "Polygon", "coordinates": [[[11.358434256766483, 44.53155735408354], [11.358423360393099, 44.53128750318793], [11.356914356085994, 44.531318670108824], [11.356936135073164, 44.531858372468434], [11.357313389857152, 44.531850582459896], [11.357335172933334, 44.532390284614074], [11.357712431042797, 44.53238249321472], [11.3577342182082, 44.53292219516342], [11.3581114796432, 44.5329144023732], [11.358133270898035, 44.53345410411642], [11.358510535658631, 44.53344630993526], [11.358477843788018, 44.53263675751685], [11.358855103178268, 44.532628962309445], [11.358844204454552, 44.532359111546434], [11.359221461952847, 44.53235131516694], [11.359199661485718, 44.53181161374208], [11.358822407465604, 44.531819409975654], [11.358811509200367, 44.53154955916791], [11.358434256766483, 44.53155735408354]]]}}, {"type": "Feature", "properties": {"threshold": "ge_13", "source": "HistorySUHI", "period": "2013-2025", "hotspot_percentile": "top_10_pct", "label": ">= 13 estati"}, "geometry": {"type": "Polygon", "coordinates": [[[11.35930866993568, 44.53451012026982], [11.359685941194789, 44.534502322061535], [11.359675037922608, 44.53423247154884], [11.359297768402795, 44.53424026968416], [11.35930866993568, 44.53451012026982]]]}}, {"type": "Feature", "properties": {"threshold": "ge_13", "source": "HistorySUHI", "period": "2013-2025", "hotspot_percentile": "top_10_pct", "label": ">= 13 estati"}, "geometry": {"type": "Polygon", "coordinates": [[[11.346945391321293, 44.536925585981955], [11.347699971583177, 44.53691006933828], [11.347689122752652, 44.53664021661543], [11.348443698926841, 44.53662469513596], [11.348421994764076, 44.536084989936036], [11.346158285290482, 44.536131538560255], [11.346179968578816, 44.53667124463136], [11.346934545969912, 44.53665573311389], [11.346945391321293, 44.536925585981955]]]}}, {"type": "Feature", "properties": {"threshold": "ge_13", "source": "HistorySUHI", "period": "2013-2025", "hotspot_percentile": "top_10_pct", "label": ">= 13 estati"}, "geometry": {"type": "Polygon", "coordinates": [[[11.339206035008079, 44.541675732358364], [11.338828711883252, 44.541683463891324], [11.338850331651864, 44.542223172265174], [11.34111428900688, 44.54217676351651], [11.341125109559256, 44.542446617246824], [11.3426344183883, 44.5424156528812], [11.342591109248303, 44.541336239029604], [11.342213789228987, 44.54134398169946], [11.342202964063592, 44.541074128126894], [11.340316370390283, 44.5411128224321], [11.340327186855657, 44.54138267636676], [11.339195223611132, 44.54140587822147], [11.339206035008079, 44.541675732358364]]]}}, {"type": "Feature", "properties": {"threshold": "ge_13", "source": "HistorySUHI", "period": "2013-2025", "hotspot_percentile": "top_10_pct", "label": ">= 13 estati"}, "geometry": {"type": "Polygon", "coordinates": [[[11.351283359365125, 44.5508802437846], [11.351294230189431, 44.55115009513648], [11.350916849121333, 44.55115786789692], [11.350927718357246, 44.55142771930663], [11.350550335395832, 44.55143549089393], [11.350580170517242, 44.55217630788772], [11.35062519269056, 44.55217068875596], [11.350702987417971, 44.55214883110882], [11.351516964051894, 44.55202962639874], [11.351520481148464, 44.552029112822936], [11.351639251707356, 44.55200246731962], [11.35168653929662, 44.551991833434606], [11.351799243703736, 44.551957435543095], [11.351937388343822, 44.551890446442535], [11.352076070594112, 44.55180648928261], [11.35204899186819, 44.55113454587801], [11.3524263724788, 44.551126769379984], [11.352415496431986, 44.55085691824638], [11.35203811756221, 44.55086469467164], [11.352027243408743, 44.55059484345035], [11.35164986612726, 44.550602618557], [11.351660738539913, 44.55087246985104], [11.351283359365125, 44.5508802437846]]]}}, {"type": "Feature", "properties": {"threshold": "ge_13", "source": "HistorySUHI", "period": "2013-2025", "hotspot_percentile": "top_10_pct", "label": ">= 13 estati"}, "geometry": {"type": "Polygon", "coordinates": [[[11.355488973290992, 44.552143914599974], [11.354734200432143, 44.55215948686674], [11.354755709399225, 44.55269259511369], [11.354876909101204, 44.552670623146355], [11.355139055936295, 44.552602485376426], [11.355144773369037, 44.55260096302336], [11.355101216412693, 44.55249125688679], [11.355100349001258, 44.55248910517879], [11.355498718771747, 44.55238538793627], [11.355488973290992, 44.552143914599974]]]}}, {"type": "Feature", "properties": {"threshold": "ge_13", "source": "HistorySUHI", "period": "2013-2025", "hotspot_percentile": "top_10_pct", "label": ">= 13 estati"}, "geometry": {"type": "Polygon", "coordinates": [[[11.373841036176165, 44.47398165263536], [11.37381914527226, 44.473441951376365], [11.373065397507473, 44.47345762308494], [11.373087281476371, 44.47399732463724], [11.373841036176165, 44.47398165263536]]]}}, {"type": "Feature", "properties": {"threshold": "ge_13", "source": "HistorySUHI", "period": "2013-2025", "hotspot_percentile": "top_10_pct", "label": ">= 13 estati"}, "geometry": {"type": "Polygon", "coordinates": [[[11.39508814531957, 44.486231496983805], [11.395055001315189, 44.48542195933778], [11.394678056211028, 44.48542986754935], [11.394622827973603, 44.48408063746979], [11.394245891387829, 44.4840885440685], [11.39423484793932, 44.483818697933685], [11.393857912933342, 44.48382660321556], [11.393868954647283, 44.48409644942436], [11.393492017751987, 44.48410435353735], [11.393503057886079, 44.48437419980514], [11.393126119101456, 44.48438210274924], [11.393181313419545, 44.485731334233364], [11.39355826087753, 44.48572343091949], [11.393580343157282, 44.48626312326042], [11.393957293930036, 44.486255218555684], [11.393968337036823, 44.48652506462974], [11.394345289389593, 44.48651715860807], [11.39436737953714, 44.48705685056327], [11.394744335204756, 44.48704894315066], [11.394755382245593, 44.48731878903182], [11.395132339493237, 44.48731088030222], [11.395121290717546, 44.48704103449507], [11.395498246075482, 44.4870331245965], [11.395487195719813, 44.48676327884842], [11.395864149188048, 44.48675536778091], [11.395853097252449, 44.48648552209186], [11.394722241587564, 44.48650925134345], [11.394711195011203, 44.48623940541738], [11.39508814531957, 44.486231496983805]]]}}, {"type": "Feature", "properties": {"threshold": "ge_13", "source": "HistorySUHI", "period": "2013-2025", "hotspot_percentile": "top_10_pct", "label": ">= 13 estati"}, "geometry": {"type": "Polygon", "coordinates": [[[11.395862994713784, 44.495938025882396], [11.396240007179733, 44.49593011229751], [11.396217892927526, 44.49539042192284], [11.39584088393281, 44.495398335359624], [11.395862994713784, 44.495938025882396]]]}}, {"type": "Feature", "properties": {"threshold": "ge_13", "source": "HistorySUHI", "period": "2013-2025", "hotspot_percentile": "top_10_pct", "label": ">= 13 estati"}, "geometry": {"type": "Polygon", "coordinates": [[[11.39252507710708, 44.49735842156969], [11.391771031566117, 44.49737422336811], [11.391759994416718, 44.497104377375265], [11.390251908421615, 44.4971359657553], [11.390262938627878, 44.497405812043745], [11.389885915006728, 44.49741370610406], [11.389919001345682, 44.4982232451012], [11.39029603017435, 44.49821535081927], [11.390307060999076, 44.49848519704785], [11.390684091409009, 44.49847730144857], [11.390695124124267, 44.49874714758829], [11.39107215611546, 44.49873925067163], [11.391061121664295, 44.49846940460581], [11.391815181710832, 44.49845360718982], [11.39180414394258, 44.49818376125684], [11.392181171997906, 44.49817586075757], [11.392170132648522, 44.497906014883554], [11.392547158813258, 44.497898113214745], [11.39252507710708, 44.49735842156969]]]}}, {"type": "Feature", "properties": {"threshold": "ge_13", "source": "HistorySUHI", "period": "2013-2025", "hotspot_percentile": "top_10_pct", "label": ">= 13 estati"}, "geometry": {"type": "Polygon", "coordinates": [[[11.39901193443831, 44.49911281715461], [11.399388966492848, 44.49910489273311], [11.399355748105878, 44.49829535946652], [11.398978721258958, 44.498303283665564], [11.39901193443831, 44.49911281715461]]]}}, {"type": "Feature", "properties": {"threshold": "ge_13", "source": "HistorySUHI", "period": "2013-2025", "hotspot_percentile": "top_10_pct", "label": ">= 13 estati"}, "geometry": {"type": "Polygon", "coordinates": [[[11.38711208038974, 44.50341344300023], [11.387101062408428, 44.50314359637653], [11.386724000939157, 44.50315148079506], [11.38673501718412, 44.503421327492546], [11.38711208038974, 44.50341344300023]]]}}, {"type": "Feature", "properties": {"threshold": "ge_13", "source": "HistorySUHI", "period": "2013-2025", "hotspot_percentile": "top_10_pct", "label": ">= 13 estati"}, "geometry": {"type": "Polygon", "coordinates": [[[11.402593717364077, 44.50362879513326], [11.402560449389734, 44.502819264412004], [11.404068668302957, 44.5027875103402], [11.404057572344227, 44.50251766703359], [11.403680519585377, 44.5025256073427], [11.403669425518366, 44.5022557639468], [11.404423527408166, 44.50223988223359], [11.404401332796104, 44.50170019569406], [11.404024285401258, 44.501708137023854], [11.40403538089338, 44.50197798037542], [11.40328128216485, 44.501993859452824], [11.403292374340188, 44.50226370293799], [11.402538271517393, 44.50227957718953], [11.402549360375842, 44.502549420808265], [11.401041145920395, 44.502581154684925], [11.401030064006731, 44.50231131076924], [11.400275959319252, 44.502327170097374], [11.400253802902617, 44.501787481924275], [11.398745605553742, 44.50181918506373], [11.39881203499782, 44.50343825118326], [11.398434974855181, 44.503446174303946], [11.398446045236085, 44.5037160186789], [11.3950524813451, 44.50378727146623], [11.395041426591154, 44.50351742642454], [11.394287303049481, 44.50353324654858], [11.394276251923136, 44.50326340134386], [11.393899191656239, 44.50327130946634], [11.393932340290979, 44.50408084525756], [11.393178208874437, 44.504096658215396], [11.393200301793094, 44.50463634896395], [11.393577371051625, 44.50462844295893], [11.39358841947968, 44.50489828823679], [11.394719631535255, 44.504874562537296], [11.394708577897866, 44.504604717481456], [11.396970987406048, 44.50455723294566], [11.396948859759368, 44.50401754367774], [11.398080052001694, 44.50399378506414], [11.398091120956602, 44.50426362948326], [11.398468186463452, 44.50425570738386], [11.398490328311576, 44.50479539602891], [11.398867397136035, 44.504787472537515], [11.398878470029327, 44.50505731676341], [11.399255540435, 44.505049391954124], [11.399266615219974, 44.505319236090884], [11.399643687206856, 44.50531130996369], [11.399654763883557, 44.5055811540113], [11.40154013017075, 44.50554150434802], [11.401517959608016, 44.50500181697984], [11.402272098089478, 44.50498594870518], [11.402261009568372, 44.504716105147104], [11.402638076839544, 44.504708169218446], [11.402615896790897, 44.50416848220583], [11.402992960433862, 44.50416054518199], [11.402970777534396, 44.50362085825795], [11.402593717364077, 44.50362879513326]]]}}, {"type": "Feature", "properties": {"threshold": "ge_13", "source": "HistorySUHI", "period": "2013-2025", "hotspot_percentile": "top_10_pct", "label": ">= 13 estati"}, "geometry": {"type": "Polygon", "coordinates": [[[11.386002916317283, 44.50397678639118], [11.384494646824777, 44.50400830256347], [11.384505653114445, 44.50427814965851], [11.384128583619104, 44.50428602566594], [11.384150593188359, 44.50482571995857], [11.386413028683224, 44.50477844437302], [11.386402013402575, 44.504508597676555], [11.386779083708268, 44.50450071413288], [11.38673501718412, 44.503421327492546], [11.386357953824074, 44.50342921074115], [11.38636896848709, 44.50369905749744], [11.385991903236263, 44.5037069395761], [11.386002916317283, 44.50397678639118]]]}}, {"type": "Feature", "properties": {"threshold": "ge_13", "source": "HistorySUHI", "period": "2013-2025", "hotspot_percentile": "top_10_pct", "label": ">= 13 estati"}, "geometry": {"type": "Polygon", "coordinates": [[[11.390571847185232, 44.504961502043564], [11.389440630021838, 44.504985186699045], [11.38946268913961, 44.50552487883615], [11.389085612969527, 44.505532771381475], [11.389096641023785, 44.50580261750142], [11.389473718930422, 44.505794724882236], [11.389484748875853, 44.50606457091336], [11.390993065902226, 44.50603298770304], [11.390982029010518, 44.50576314196744], [11.391359106143812, 44.50575524312925], [11.391348067670283, 44.50548539745261], [11.390970992273528, 44.50549329621689], [11.390959955691253, 44.50522345045135], [11.390582881876302, 44.50523134789795], [11.390571847185232, 44.504961502043564]]]}}, {"type": "Feature", "properties": {"threshold": "ge_13", "source": "HistorySUHI", "period": "2013-2025", "hotspot_percentile": "top_10_pct", "label": ">= 13 estati"}, "geometry": {"type": "Polygon", "coordinates": [[[11.403092791178086, 44.506589135598105], [11.403846949253694, 44.5065732564821], [11.403835852853694, 44.506303413311066], [11.403081698251187, 44.50631929227849], [11.403092791178086, 44.506589135598105]]]}}, {"type": "Feature", "properties": {"threshold": "ge_13", "source": "HistorySUHI", "period": "2013-2025", "hotspot_percentile": "top_10_pct", "label": ">= 13 estati"}, "geometry": {"type": "Polygon", "coordinates": [[[11.368854492287689, 44.50919532186845], [11.368920111284641, 44.51081442111487], [11.369674342626382, 44.51079876647713], [11.369696223800528, 44.511338465813516], [11.370073342715617, 44.511330636482015], [11.370062400314707, 44.51106078689455], [11.370439517339243, 44.51105295639222], [11.370406685845628, 44.51024340776006], [11.370029574032383, 44.51025123804256], [11.36999674913063, 44.50944168905619], [11.369619642375069, 44.50944951787486], [11.36960870278491, 44.509179668109624], [11.368854492287689, 44.50919532186845]]]}}, {"type": "Feature", "properties": {"threshold": "ge_13", "source": "HistorySUHI", "period": "2013-2025", "hotspot_percentile": "top_10_pct", "label": ">= 13 estati"}, "geometry": {"type": "Polygon", "coordinates": [[[11.366679266960087, 44.511401055678036], [11.366668340193607, 44.5111312054316], [11.366291221636123, 44.51113902349306], [11.366302146665431, 44.51140887381263], [11.366679266960087, 44.511401055678036]]]}}, {"type": "Feature", "properties": {"threshold": "ge_13", "source": "HistorySUHI", "period": "2013-2025", "hotspot_percentile": "top_10_pct", "label": ">= 13 estati"}, "geometry": {"type": "Polygon", "coordinates": [[[11.36490285318044, 44.514138639210216], [11.366788543050658, 44.514099557321316], [11.366777614752182, 44.513829707224154], [11.365269070111966, 44.513860974931134], [11.365170784862578, 44.51143232075178], [11.365925026217612, 44.51141669070312], [11.36590317978648, 44.51087698990274], [11.365526062659852, 44.51088480540285], [11.36551514141112, 44.510614954907155], [11.36513802586851, 44.51062276909006], [11.365116187304551, 44.51008306790762], [11.364739075083055, 44.51009088070022], [11.364717240605504, 44.50955117931188], [11.365094349352903, 44.50954336666549], [11.365072512013544, 44.50900366536367], [11.364318301313705, 44.509019289120005], [11.364372878439772, 44.510368542993675], [11.362864420463149, 44.51039977703958], [11.362940786225687, 44.51228873388201], [11.363317913109674, 44.51228092672525], [11.363328824853404, 44.512550777570006], [11.363705953321704, 44.51254296909604], [11.363738694682802, 44.513352521321586], [11.363361561002487, 44.51336033001476], [11.363372473358153, 44.51363018079984], [11.3626182020638, 44.51364579459971], [11.362629111097625, 44.51391564551599], [11.363383385866808, 44.513900031569996], [11.363405211343098, 44.514439733065544], [11.362650929624108, 44.51445534730375], [11.362672748762389, 44.51499504903185], [11.363049893173374, 44.51498724238878], [11.363060804709484, 44.5152570931574], [11.363815096547562, 44.515241475992276], [11.36382601171177, 44.515511326599835], [11.36420315913883, 44.515503516077764], [11.36421407619365, 44.51577336659731], [11.364968374063727, 44.51575774167409], [11.364913772944908, 44.51440848965817], [11.364159492450097, 44.514424113850346], [11.364115828210105, 44.51334471138419], [11.364492961584373, 44.51333690020261], [11.364514796873074, 44.51387660131934], [11.364891933569064, 44.513868788747345], [11.36490285318044, 44.514138639210216]]]}}, {"type": "Feature", "properties": {"threshold": "ge_13", "source": "HistorySUHI", "period": "2013-2025", "hotspot_percentile": "top_10_pct", "label": ">= 13 estati"}, "geometry": {"type": "Polygon", "coordinates": [[[11.369395681512511, 44.513235241620755], [11.369772812741722, 44.51322741302056], [11.36976187100423, 44.51295756346435], [11.36938474151234, 44.51296539199128], [11.369395681512511, 44.513235241620755]]]}}, {"type": "Feature", "properties": {"threshold": "ge_13", "source": "HistorySUHI", "period": "2013-2025", "hotspot_percentile": "top_10_pct", "label": ">= 13 estati"}, "geometry": {"type": "Polygon", "coordinates": [[[11.371991789170508, 44.51210101873641], [11.37161466581114, 44.51210885450835], [11.371625615774654, 44.512378703742904], [11.370871365120937, 44.512394371701006], [11.370882311763442, 44.51266422106725], [11.370505184469106, 44.512672053253375], [11.370516129527791, 44.51294190267797], [11.37013900034272, 44.51294973369324], [11.370171831227438, 44.513759282097276], [11.370926099868164, 44.51374361838286], [11.370915152611772, 44.513473769076356], [11.371669417163867, 44.51345810053178], [11.37170226981778, 44.51426764796662], [11.37207940707569, 44.51425981160808], [11.372057501678103, 44.51372011347978], [11.37281176878368, 44.513704437323426], [11.372746035428607, 44.51208534346019], [11.372368912376338, 44.51209318172036], [11.372357959091923, 44.51182333261754], [11.3719808376233, 44.51183116956026], [11.371991789170508, 44.51210101873641]]]}}, {"type": "Feature", "properties": {"threshold": "ge_13", "source": "HistorySUHI", "period": "2013-2025", "hotspot_percentile": "top_10_pct", "label": ">= 13 estati"}, "geometry": {"type": "Polygon", "coordinates": [[[11.36867422909053, 44.514060444326866], [11.368663292105015, 44.513790594595704], [11.36828615694102, 44.51379841960981], [11.36829709218913, 44.51406826941419], [11.36867422909053, 44.514060444326866]]]}}, {"type": "Feature", "properties": {"threshold": "ge_13", "source": "HistorySUHI", "period": "2013-2025", "hotspot_percentile": "top_10_pct", "label": ">= 13 estati"}, "geometry": {"type": "Polygon", "coordinates": [[[11.40301523282675, 44.513882839258976], [11.403026328371556, 44.51415268223313], [11.403403456275996, 44.51414474246082], [11.403392358993955, 44.51387489956095], [11.403769485005585, 44.51386695861882], [11.403725090484476, 44.51278758716669], [11.402970852203016, 44.51280346721245], [11.402981947125632, 44.51307331024657], [11.402604826014437, 44.513081248477626], [11.402638106503993, 44.51389077771288], [11.40301523282675, 44.513882839258976]]]}}, {"type": "Feature", "properties": {"threshold": "ge_13", "source": "HistorySUHI", "period": "2013-2025", "hotspot_percentile": "top_10_pct", "label": ">= 13 estati"}, "geometry": {"type": "Polygon", "coordinates": [[[11.372090360004815, 44.51452966064983], [11.372467498846591, 44.51452182297372], [11.372456544180041, 44.51425197400532], [11.37207940707569, 44.51425981160808], [11.372090360004815, 44.51452966064983]]]}}, {"type": "Feature", "properties": {"threshold": "ge_13", "source": "HistorySUHI", "period": "2013-2025", "hotspot_percentile": "top_10_pct", "label": ">= 13 estati"}, "geometry": {"type": "Polygon", "coordinates": [[[11.399698652954209, 44.51584314573718], [11.399687572112569, 44.5155733021848], [11.400064710102779, 44.515565373238715], [11.400053627679108, 44.51529552974554], [11.399676491426279, 44.51530345861743], [11.399665410895334, 44.515033615035094], [11.398911141398377, 44.51504946889799], [11.398944373032952, 44.51585900004515], [11.399698652954209, 44.51584314573718]]]}}, {"type": "Feature", "properties": {"threshold": "ge_13", "source": "HistorySUHI", "period": "2013-2025", "hotspot_percentile": "top_10_pct", "label": ">= 13 estati"}, "geometry": {"type": "Polygon", "coordinates": [[[11.397025464938736, 44.51508908178212], [11.397036533308123, 44.51535892588351], [11.396282258163126, 44.51537476247608], [11.396293323212886, 44.515644606710666], [11.395916183670277, 44.51565252321474], [11.395927247137738, 44.51592236750842], [11.39555010570259, 44.51593028284235], [11.395572229627902, 44.516469971532935], [11.395949374537988, 44.51646205605088], [11.395938310760307, 44.516192211787136], [11.396315453777797, 44.516184295134906], [11.396304388417775, 44.515914450930275], [11.39819009249048, 44.515874849376246], [11.398167944861735, 44.51533516166318], [11.398545081735804, 44.515327237768034], [11.398534006416943, 44.515057393963176], [11.397025464938736, 44.51508908178212]]]}}, {"type": "Feature", "properties": {"threshold": "ge_13", "source": "HistorySUHI", "period": "2013-2025", "hotspot_percentile": "top_10_pct", "label": ">= 13 estati"}, "geometry": {"type": "Polygon", "coordinates": [[[11.414873328938821, 44.51768373852182], [11.414496181389609, 44.51769171666236], [11.414473881848156, 44.51715203558718], [11.414096737617593, 44.51716001233419], [11.414074442176274, 44.51662033104969], [11.413697301264298, 44.51662830640321], [11.413675009922907, 44.51608862490941], [11.412920734579773, 44.5161045715854], [11.412909592618178, 44.515834730666775], [11.412532456449648, 44.5158427020639], [11.412521316381596, 44.51557286105566], [11.412144181794229, 44.515580831134045], [11.412121905601266, 44.51504114892341], [11.411744774332357, 44.51504911760849], [11.411689095268606, 44.51369991144643], [11.412066217851407, 44.51369194313417], [11.412055080769852, 44.513422101931305], [11.412432201459373, 44.51341413244953], [11.412421062796827, 44.513144291306226], [11.411666824735903, 44.51316022887657], [11.41165568970371, 44.51289038756912], [11.41127857217618, 44.512898354413664], [11.411267439037168, 44.51262851301666], [11.409758974314844, 44.51266036765621], [11.409781226852168, 44.513200051031355], [11.409026986606614, 44.51321597118483], [11.409038109634967, 44.513485812998866], [11.40866098754113, 44.51349377128397], [11.408683230591286, 44.51403345501597], [11.408306104867165, 44.51404141220591], [11.408317224888902, 44.514311254123875], [11.407940097271661, 44.51431921014415], [11.407951215712046, 44.51458905212155], [11.408328345066534, 44.51458109602683], [11.408350585889504, 44.51512077978776], [11.407973453060446, 44.51512873603138], [11.408006810252163, 44.51593826178361], [11.406875395193644, 44.515962123719376], [11.406886509357129, 44.51623196583007], [11.40650936895522, 44.51623991739468], [11.406542707168233, 44.517049443859996], [11.406919852782499, 44.517041492072174], [11.406942082511877, 44.51758117615859], [11.406564933422581, 44.517589128095224], [11.406587160300163, 44.51812881227046], [11.406210007579928, 44.51813676311163], [11.406221119514834, 44.51840660525116], [11.406598273972671, 44.51839865433558], [11.406620501785138, 44.51893833842083], [11.407374817183872, 44.51892243255911], [11.407385934799176, 44.5191922744304], [11.409271729256176, 44.51915248762825], [11.409282855715782, 44.51942232911224], [11.410037175882149, 44.519406405532095], [11.41004830597315, 44.51967624685207], [11.410802628990727, 44.51966031814554], [11.410824896591803, 44.52020000044241], [11.4115792259359, 44.52018406646032], [11.411590363446116, 44.52045390743713], [11.412344695641128, 44.520437968328444], [11.412333554655397, 44.52016812750076], [11.413465046563088, 44.52014420972875], [11.413453900520377, 44.51987436910987], [11.414585385808467, 44.51985044036257], [11.41457423470894, 44.519580599952576], [11.414951394421296, 44.519572621289456], [11.414873328938821, 44.51768373852182]], [[11.413808767347385, 44.51932671297156], [11.413819914815235, 44.51959655354584], [11.413442754633934, 44.51960452847598], [11.413431608903757, 44.51933468782708], [11.413808767347385, 44.51932671297156]], [[11.413797620035824, 44.51905687238228], [11.414551932978902, 44.51904091908758], [11.414563083765753, 44.51931075952759], [11.413808767347385, 44.51932671297156], [11.413797620035824, 44.51905687238228]]]}}, {"type": "Feature", "properties": {"threshold": "ge_13", "source": "HistorySUHI", "period": "2013-2025", "hotspot_percentile": "top_10_pct", "label": ">= 13 estati"}, "geometry": {"type": "Polygon", "coordinates": [[[11.387471214970647, 44.5306836575712], [11.387482245241806, 44.53095350281631], [11.387105004491652, 44.53096139234788], [11.387138091016514, 44.53177092821491], [11.387515336983315, 44.53176303846186], [11.38752636787317, 44.53203288364711], [11.388280862820563, 44.53201710025853], [11.388291897342999, 44.53228694528113], [11.389423643820395, 44.53226326063961], [11.389401564496662, 44.5317235710227], [11.389024319303495, 44.531731467000384], [11.389002244076721, 44.53119177717583], [11.388625002206544, 44.53119967176084], [11.388613966564158, 44.53092982675224], [11.388236726278086, 44.53093772001849], [11.388225692529268, 44.53066787492106], [11.387471214970647, 44.5306836575712]]]}}, {"type": "Feature", "properties": {"threshold": "ge_13", "source": "HistorySUHI", "period": "2013-2025", "hotspot_percentile": "top_10_pct", "label": ">= 13 estati"}, "geometry": {"type": "Polygon", "coordinates": [[[11.367909282638935, 44.532441503821595], [11.36792022325437, 44.53271135281553], [11.368297480555626, 44.5327035264092], [11.368286538201104, 44.5324336774885], [11.368663793609834, 44.53242584991038], [11.36864190588301, 44.53188615217067], [11.368264653952377, 44.531893979602295], [11.368253712058166, 44.53162413063678], [11.367499211214655, 44.53163978161861], [11.367532026923351, 44.53244932890969], [11.367909282638935, 44.532441503821595]]]}}, {"type": "Feature", "properties": {"threshold": "ge_13", "source": "HistorySUHI", "period": "2013-2025", "hotspot_percentile": "top_10_pct", "label": ">= 13 estati"}, "geometry": {"type": "Polygon", "coordinates": [[[11.36655334403626, 44.53625068536028], [11.366930624561531, 44.53624286298253], [11.366919687169691, 44.53597301396301], [11.367296965802172, 44.5359651904133], [11.36728602682432, 44.53569534145205], [11.366908749931225, 44.535703164928556], [11.366897812846135, 44.53543331587918], [11.366520537539031, 44.535441138037335], [11.36655334403626, 44.53625068536028]]]}}, {"type": "Feature", "properties": {"threshold": "ge_13", "source": "HistorySUHI", "period": "2013-2025", "hotspot_percentile": "top_10_pct", "label": ">= 13 estati"}, "geometry": {"type": "Polygon", "coordinates": [[[11.370337095584079, 44.53644225389521], [11.371468937312594, 44.53641874545133], [11.371436062518754, 44.53560920103059], [11.370304236444714, 44.53563270881455], [11.370337095584079, 44.53644225389521]]]}}, {"type": "Feature", "properties": {"threshold": "ge_13", "source": "HistorySUHI", "period": "2013-2025", "hotspot_percentile": "top_10_pct", "label": ">= 13 estati"}, "geometry": {"type": "Polygon", "coordinates": [[[11.420122815601651, 44.4894845641105], [11.420131968357822, 44.48970577219813], [11.42144205910148, 44.48945657916327], [11.420122815601651, 44.4894845641105]]]}}, {"type": "Feature", "properties": {"threshold": "ge_13", "source": "HistorySUHI", "period": "2013-2025", "hotspot_percentile": "top_10_pct", "label": ">= 13 estati"}, "geometry": {"type": "Polygon", "coordinates": [[[11.419380048320072, 44.489770386772186], [11.4193867814221, 44.489933163916895], [11.419921521766742, 44.48975890856523], [11.419380048320072, 44.489770386772186]]]}}, {"type": "Feature", "properties": {"threshold": "ge_13", "source": "HistorySUHI", "period": "2013-2025", "hotspot_percentile": "top_10_pct", "label": ">= 13 estati"}, "geometry": {"type": "Polygon", "coordinates": [[[11.419014241891935, 44.49004821681368], [11.419014500879905, 44.49005447863992], [11.41903507131541, 44.49004777537073], [11.419014241891935, 44.49004821681368]]]}}, {"type": "Feature", "properties": {"threshold": "ge_13", "source": "HistorySUHI", "period": "2013-2025", "hotspot_percentile": "top_10_pct", "label": ">= 13 estati"}, "geometry": {"type": "Polygon", "coordinates": [[[11.410655356675306, 44.49778721307426], [11.410633108025577, 44.49724752858476], [11.410256091052528, 44.49725548986326], [11.41027833623084, 44.49779517450175], [11.410655356675306, 44.49778721307426]]]}}, {"type": "Feature", "properties": {"threshold": "ge_13", "source": "HistorySUHI", "period": "2013-2025", "hotspot_percentile": "top_10_pct", "label": ">= 13 estati"}, "geometry": {"type": "Polygon", "coordinates": [[[11.417075834420103, 44.49792151952216], [11.417086988642476, 44.498191360461135], [11.416709967380704, 44.498199343175585], [11.416754578890567, 44.499278707080116], [11.417508635144037, 44.499262739810156], [11.417519791884022, 44.499532580599336], [11.418273850983638, 44.499516608206136], [11.418262690771975, 44.49924676756642], [11.418639718351308, 44.49923877957939], [11.418628556560265, 44.49896893899939], [11.419005582247332, 44.49896094984368], [11.418972092605628, 44.49815142823786], [11.418218051489607, 44.498167404857355], [11.418206892060073, 44.49789756414255], [11.417075834420103, 44.49792151952216]]]}}, {"type": "Feature", "properties": {"threshold": "ge_13", "source": "HistorySUHI", "period": "2013-2025", "hotspot_percentile": "top_10_pct", "label": ">= 13 estati"}, "geometry": {"type": "Polygon", "coordinates": [[[11.413539539078922, 44.50366796220923], [11.413162481534876, 44.50367593398139], [11.413106791839233, 44.5023267265321], [11.413483840702337, 44.502318755132904], [11.413472701495468, 44.5020489136726], [11.413849748466314, 44.50204094110441], [11.413838607679498, 44.501771099703724], [11.414215652758093, 44.501763125966576], [11.414193368180852, 44.50122344326938], [11.413816326574358, 44.50123141685731], [11.413794046093853, 44.50069173395084], [11.412662930753548, 44.500715646805844], [11.41267406570774, 44.50098548849034], [11.412297025212778, 44.50099345702953], [11.412330425803724, 44.50180298221669], [11.411953379944551, 44.50181094973601], [11.411964512050897, 44.5020807915096], [11.411587464299581, 44.5020887578599], [11.411609725508137, 44.50262844151116], [11.411232674128517, 44.50263640676695], [11.411254932488802, 44.50317609050726], [11.410877877480795, 44.503184054668495], [11.41092238912842, 44.504263422267144], [11.411299451081486, 44.504255457807815], [11.411266061902955, 44.5034459323549], [11.41202017492337, 44.50343000015247], [11.41203130796603, 44.50369984183604], [11.412408365978408, 44.50369187379481], [11.412419500913398, 44.50396171538879], [11.413550679222705, 44.50393780357946], [11.413539539078922, 44.50366796220923]]]}}, {"type": "Feature", "properties": {"threshold": "ge_13", "source": "HistorySUHI", "period": "2013-2025", "hotspot_percentile": "top_10_pct", "label": ">= 13 estati"}, "geometry": {"type": "Polygon", "coordinates": [[[11.410134891202315, 44.50346982133123], [11.410511948258499, 44.503461859582764], [11.410500822316806, 44.50319201758609], [11.409746711520972, 44.503207939690384], [11.409780079396382, 44.504017466082395], [11.410157140081049, 44.504009505428584], [11.410134891202315, 44.50346982133123]]]}}, {"type": "Feature", "properties": {"threshold": "ge_13", "source": "HistorySUHI", "period": "2013-2025", "hotspot_percentile": "top_10_pct", "label": ">= 13 estati"}, "geometry": {"type": "Polygon", "coordinates": [[[11.41841894797179, 44.50302453515592], [11.418463598518588, 44.504103896783725], [11.418840657346674, 44.504095907451145], [11.41885182211084, 44.504365747745794], [11.419228882518695, 44.50435775709478], [11.41924004917566, 44.50462759729963], [11.419617111163273, 44.5046196053302], [11.419605942770016, 44.504349765200125], [11.419983002864782, 44.504341772061814], [11.419949493415611, 44.50353225180585], [11.419572438529565, 44.50354024471979], [11.419561270762513, 44.50327040452964], [11.419184217456113, 44.50327839612517], [11.419173051581776, 44.50300855584523], [11.41841894797179, 44.50302453515592]]]}}, {"type": "Feature", "properties": {"threshold": "ge_13", "source": "HistorySUHI", "period": "2013-2025", "hotspot_percentile": "top_10_pct", "label": ">= 13 estati"}, "geometry": {"type": "Polygon", "coordinates": [[[11.410556453584917, 44.504541227419466], [11.41054532701936, 44.504271385482795], [11.41016826475433, 44.50427934745477], [11.410179389583556, 44.50454918946594], [11.410556453584917, 44.504541227419466]]]}}, {"type": "Feature", "properties": {"threshold": "ge_13", "source": "HistorySUHI", "period": "2013-2025", "hotspot_percentile": "top_10_pct", "label": ">= 13 estati"}, "geometry": {"type": "Polygon", "coordinates": [[[11.411343972170462, 44.50533482486828], [11.411721040912948, 44.50532685886712], [11.411743305866462, 44.50586654215825], [11.412120377925755, 44.505858574764254], [11.412109243634525, 44.505588733200746], [11.412486313801296, 44.505580764637585], [11.412464042214273, 44.50504108161468], [11.411709908670272, 44.50505701719906], [11.411698776583645, 44.50478717551597], [11.411321711313928, 44.504795141368064], [11.411343972170462, 44.50533482486828]]]}}, {"type": "Feature", "properties": {"threshold": "ge_13", "source": "HistorySUHI", "period": "2013-2025", "hotspot_percentile": "top_10_pct", "label": ">= 13 estati"}, "geometry": {"type": "Polygon", "coordinates": [[[11.422323627266307, 44.50618266404351], [11.423077769414745, 44.50616665806373], [11.423044215003735, 44.505357139919624], [11.422290083273637, 44.505373145450086], [11.422323627266307, 44.50618266404351]]]}}, {"type": "Feature", "properties": {"threshold": "ge_13", "source": "HistorySUHI", "period": "2013-2025", "hotspot_percentile": "top_10_pct", "label": ">= 13 estati"}, "geometry": {"type": "Polygon", "coordinates": [[[11.41590224174193, 44.50604867322103], [11.415913393710083, 44.50631851400833], [11.41553631973981, 44.50632649398903], [11.415569771372724, 44.507136016484864], [11.417078087153838, 44.50710408820327], [11.417066929507092, 44.50683424768512], [11.417821082986228, 44.50681827623107], [11.417787600565575, 44.50600875503481], [11.41741052911365, 44.50601674115953], [11.417399370356094, 44.505746900656014], [11.416645230455847, 44.505762869024814], [11.416656385740543, 44.506032709677754], [11.41590224174193, 44.50604867322103]]]}}, {"type": "Feature", "properties": {"threshold": "ge_13", "source": "HistorySUHI", "period": "2013-2025", "hotspot_percentile": "top_10_pct", "label": ">= 13 estati"}, "geometry": {"type": "Polygon", "coordinates": [[[11.42195773586489, 44.50646050474376], [11.42233480891068, 44.50645250354459], [11.422323627266307, 44.50618266404351], [11.42194655595696, 44.5061906651678], [11.42195773586489, 44.50646050474376]]]}}, {"type": "Feature", "properties": {"threshold": "ge_13", "source": "HistorySUHI", "period": "2013-2025", "hotspot_percentile": "top_10_pct", "label": ">= 13 estati"}, "geometry": {"type": "Polygon", "coordinates": [[[11.423510776090435, 44.50750784944002], [11.423488401285306, 44.50696817099239], [11.423111325236885, 44.50697617607258], [11.423133696568977, 44.50751585467002], [11.423510776090435, 44.50750784944002]]]}}, {"type": "Feature", "properties": {"threshold": "ge_13", "source": "HistorySUHI", "period": "2013-2025", "hotspot_percentile": "top_10_pct", "label": ">= 13 estati"}, "geometry": {"type": "Polygon", "coordinates": [[[11.419429906295864, 44.50921487848416], [11.41944107577084, 44.50948471841866], [11.418686888811092, 44.50950070131834], [11.418720387754828, 44.51031022148039], [11.420605880031433, 44.510270253780135], [11.42059470487631, 44.51000041411513], [11.42097180112495, 44.50999241691818], [11.420960624389714, 44.50972257731298], [11.420583529877845, 44.509730574435096], [11.42057235503604, 44.50946073474004], [11.419818169015853, 44.509476725103], [11.41980699780415, 44.509206885243294], [11.419429906295864, 44.50921487848416]]]}}]}